{"type": "FeatureCollection", "features": [{"type": "Feature", "geometry": {"type": "Point", "coordinates": [-1.788225, 51.552074]}, "properties": {"Postcode": "SN1 7BB", "ULEZ": "14 Marden Avenue, Wichelstowe (Plot 35)"}}, {"type": "Feature", "geometry": {"type": "Point", "coordinates": [-1.789916, 51.550169]}, "properties": {"Postcode": "SN1 7BB", "ULEZ": "16 Marden Avenue, Wichelstowe (Plot 34)"}}, {"type": "Feature", "geometry": {"type": "Point", "coordinates": [-1.788437, 51.550103]}, "properties": {"Postcode": "SN1 7BB", "ULEZ": "18 Marden Avenue, Wichelstowe (Plot 33)"}}, {"type": "Feature", "geometry": {"type": "Point", "coordinates": [-1.788437, 51.550103]}, "properties": {"Postcode": "SN1 7BB", "ULEZ": "2 Marden Avenue (Plot 1)"}}, {"type": "Feature", "geometry": {"type": "Point", "coordinates": [-0.140528, 51.5052996]}, "properties": {"Postcode": "SW1A 1NH", "ULEZ": "26 St James Place, London"}}, {"type": "Feature", "geometry": {"type": "Point", "coordinates": [-1.806756, 51.5430978]}, "properties": {"Postcode": "SN1 7DW", "ULEZ": "3 Letcombe Lane (Plot 14)"}}, {"type": "Feature", "geometry": {"type": "Point", "coordinates": [0.1373058, 52.2338789]}, "properties": {"Postcode": "CB4 0WW", "ULEZ": "406, Cambridge Science Park"}}, {"type": "Feature", "geometry": {"type": "Point", "coordinates": [-1.788437, 51.550103]}, "properties": {"Postcode": "SN1 7BB", "ULEZ": "5 Marden Avenue, Wichelstowe  (Plot 111)"}}, {"type": "Feature", "geometry": {"type": "Point", "coordinates": [-1.8066828, 51.5432708]}, "properties": {"Postcode": "SN1 7DW", "ULEZ": "6 Letcombe Lane (Plot 20)"}}, {"type": "Feature", "geometry": {"type": "Point", "coordinates": [-1.788437, 51.550103]}, "properties": {"Postcode": "SN1 7BB", "ULEZ": "6 Marden Avenue (Plot 3)"}}, {"type": "Feature", "geometry": {"type": "Point", "coordinates": [-1.787908, 51.552074]}, "properties": {"Postcode": "SN1 7BB", "ULEZ": "7 Marden Avenue, Wichelstowe  (Plot 110)"}}, {"type": "Feature", "geometry": {"type": "Point", "coordinates": [-1.788437, 51.550103]}, "properties": {"Postcode": "SN1 7BB", "ULEZ": "8 Marden Avenue (Plot 4)"}}, {"type": "Feature", "geometry": {"type": "Point", "coordinates": [0.2924952, 51.6090928]}, "properties": {"Postcode": "CM14 5UZ", "ULEZ": "9 Osborne Heights"}}, {"type": "Feature", "geometry": {"type": "Point", "coordinates": [-2.7443499, 52.7071027]}, "properties": {"Postcode": "SY2 6AH", "ULEZ": "Abbey Foregate Car Park"}}, {"type": "Feature", "geometry": {"type": "Point", "coordinates": [-1.487213, 52.3878]}, "properties": {"Postcode": "CV3 4GU", "ULEZ": "Abbey Road"}}, {"type": "Feature", "geometry": {"type": "Point", "coordinates": [-2.769429, 55.961869]}, "properties": {"Postcode": "EH41 3QH", "ULEZ": "Abbott's View, East Lothian"}}, {"type": "Feature", "geometry": {"type": "Point", "coordinates": [-3.3285879, 51.6431954]}, "properties": {"Postcode": "CF45 4SE", "ULEZ": "Abercynon Railway Station Carpark"}}, {"type": "Feature", "geometry": {"type": "Point", "coordinates": [-3.4420267, 51.7148949]}, "properties": {"Postcode": "CF44 8YY", "ULEZ": "Aberdare Railway Station Carpark"}}, {"type": "Feature", "geometry": {"type": "Point", "coordinates": [0.1329019, 52.2049762]}, "properties": {"Postcode": "CB1 1DX", "ULEZ": "Adam and Eve Street"}}, {"type": "Feature", "geometry": {"type": "Point", "coordinates": [1.283552, 52.0563586]}, "properties": {"Postcode": "IP5 3QU", "ULEZ": "Adastral Park, Car Park B"}}, {"type": "Feature", "geometry": {"type": "Point", "coordinates": [1.2855696, 52.0599247]}, "properties": {"Postcode": "IP5 3RE", "ULEZ": "Adastral Park, Car Park U"}}, {"type": "Feature", "geometry": {"type": "Point", "coordinates": [1.279164, 52.0591855]}, "properties": {"Postcode": "IP5 3RF", "ULEZ": "Adastral Park, Martlesham Heath"}}, {"type": "Feature", "geometry": {"type": "Point", "coordinates": [-1.4960006, 52.4149586]}, "properties": {"Postcode": "CV1 5AS", "ULEZ": "Adderley Street"}}, {"type": "Feature", "geometry": {"type": "Point", "coordinates": [1.3116159, 51.123698]}, "properties": {"Postcode": "CT17 9AS", "ULEZ": "Albany Place Car Park"}}, {"type": "Feature", "geometry": {"type": "Point", "coordinates": [-0.1284779, 51.4242665]}, "properties": {"Postcode": "SW16 3HD", "ULEZ": "Albert Carr Gardens"}}, {"type": "Feature", "geometry": {"type": "Point", "coordinates": [-0.6223782, 51.4811077]}, "properties": {"Postcode": "SL4 5BU", "ULEZ": "Albert Street"}}, {"type": "Feature", "geometry": {"type": "Point", "coordinates": [-0.4003853, 54.2754683]}, "properties": {"Postcode": "YO11 2BT", "ULEZ": "Albion Road"}}, {"type": "Feature", "geometry": {"type": "Point", "coordinates": [-1.5110768, 52.4186576]}, "properties": {"Postcode": "CV1 4EQ", "ULEZ": "Aldbourne Road"}}, {"type": "Feature", "geometry": {"type": "Point", "coordinates": [-1.4201606, 54.8765223]}, "properties": {"Postcode": "SR3 3DS", "ULEZ": "Aldenham Road 1"}}, {"type": "Feature", "geometry": {"type": "Point", "coordinates": [-1.477065, 52.4442853]}, "properties": {"Postcode": "CV6 7DQ", "ULEZ": "Alder Road"}}, {"type": "Feature", "geometry": {"type": "Point", "coordinates": [0.9455239, 51.0914661]}, "properties": {"Postcode": "TN25 7EN", "ULEZ": "Aldington Village Hall"}}, {"type": "Feature", "geometry": {"type": "Point", "coordinates": [-2.5303620000000002, 55.99125]}, "properties": {"Postcode": "EH42 1FL", "ULEZ": "Alexander Gardens, East Lothian"}}, {"type": "Feature", "geometry": {"type": "Point", "coordinates": [-0.5186107, 51.9044791]}, "properties": {"Postcode": "LU5 5QT", "ULEZ": "All Saints View Apartment Car Park"}}, {"type": "Feature", "geometry": {"type": "Point", "coordinates": [-3.9239644, 56.1133805]}, "properties": {"Postcode": "FK7 7SG", "ULEZ": "Allanwater House"}}, {"type": "Feature", "geometry": {"type": "Point", "coordinates": [-0.6164211, 51.4778992]}, "properties": {"Postcode": "SL4 3HA", "ULEZ": "Alma Road"}}, {"type": "Feature", "geometry": {"type": "Point", "coordinates": [-1.4701963, 52.4408287]}, "properties": {"Postcode": "CV6 7BW", "ULEZ": "Almond Tree Avenue"}}, {"type": "Feature", "geometry": {"type": "Point", "coordinates": [-1.4745641, 52.4394005]}, "properties": {"Postcode": "CV2 1JS", "ULEZ": "Almond Tree Avenue 2"}}, {"type": "Feature", "geometry": {"type": "Point", "coordinates": [-1.485321, 52.4153742]}, "properties": {"Postcode": "CV2 4QB", "ULEZ": "Alverstone Road"}}, {"type": "Feature", "geometry": {"type": "Point", "coordinates": [-2.9455146, 51.5863847]}, "properties": {"Postcode": "NP19 9NT", "ULEZ": "Alway Community Centre. Aberthaw Rise"}}, {"type": "Feature", "geometry": {"type": "Point", "coordinates": [-2.730385, 53.3717539]}, "properties": {"Postcode": "WA8 6SE", "ULEZ": "Appleton Village"}}, {"type": "Feature", "geometry": {"type": "Point", "coordinates": [0.3217917, 51.4738352]}, "properties": {"Postcode": "RM17 6LN", "ULEZ": "Argent Street"}}, {"type": "Feature", "geometry": {"type": "Point", "coordinates": [1.2797327, 51.279423]}, "properties": {"Postcode": "CT3 2BG", "ULEZ": "Ash Parish Hall, Queen's Road"}}, {"type": "Feature", "geometry": {"type": "Point", "coordinates": [-1.4965383, 52.414678]}, "properties": {"Postcode": "CV1 5FH", "ULEZ": "Aylesford Street"}}, {"type": "Feature", "geometry": {"type": "Point", "coordinates": [0.4835009, 51.3030991]}, "properties": {"Postcode": "ME20 7AU", "ULEZ": "Bailey Bridge (West) Car Park"}}, {"type": "Feature", "geometry": {"type": "Point", "coordinates": [-1.5268923, 52.4220835]}, "properties": {"Postcode": "CV6 1JR", "ULEZ": "Banks Road"}}, {"type": "Feature", "geometry": {"type": "Point", "coordinates": [-3.2287496, 51.6922507]}, "properties": {"Postcode": "CF81 9AL", "ULEZ": "Bargoed Railway Station, Park & Ride Car Park, Caerphilly"}}, {"type": "Feature", "geometry": {"type": "Point", "coordinates": [-1.5644638, 52.4247855]}, "properties": {"Postcode": "CV5 9GE", "ULEZ": "Barnfield Avenue"}}, {"type": "Feature", "geometry": {"type": "Point", "coordinates": [-1.5024318, 52.3941589]}, "properties": {"Postcode": "CV3 5GN", "ULEZ": "Baronsfield Road"}}, {"type": "Feature", "geometry": {"type": "Point", "coordinates": [-1.5213672, 52.4101443]}, "properties": {"Postcode": "CV1 3BU", "ULEZ": "Barras Lane 1"}}, {"type": "Feature", "geometry": {"type": "Point", "coordinates": [-3.2664697, 51.4073604]}, "properties": {"Postcode": "CF63 4EL", "ULEZ": "Barry Library Car Park"}}, {"type": "Feature", "geometry": {"type": "Point", "coordinates": [-3.368706, 51.6086939]}, "properties": {"Postcode": "CF37 2PE", "ULEZ": "Barry Sidings Park, Pontypridd, Rhondda Cynon Taf"}}, {"type": "Feature", "geometry": {"type": "Point", "coordinates": [0.2592, 52.3970359]}, "properties": {"Postcode": "CB7 4DB", "ULEZ": "Barton Road Car Park"}}, {"type": "Feature", "geometry": {"type": "Point", "coordinates": [1.124721, 51.07165]}, "properties": {"Postcode": "CT21 5TP", "ULEZ": "Battery Point Car Park, Princes Parade"}}, {"type": "Feature", "geometry": {"type": "Point", "coordinates": [0.0500011, 50.79147]}, "properties": {"Postcode": "BN9 9LH", "ULEZ": "Bay Vue Road Car Park"}}, {"type": "Feature", "geometry": {"type": "Point", "coordinates": [-0.3605922, 50.8120919]}, "properties": {"Postcode": "BN13 3XN", "ULEZ": "Bayside Apartments"}}, {"type": "Feature", "geometry": {"type": "Point", "coordinates": [1.4043017, 51.2252059]}, "properties": {"Postcode": "CT14 6JF", "ULEZ": "Beach Street"}}, {"type": "Feature", "geometry": {"type": "Point", "coordinates": [-2.9631302, 51.5991845]}, "properties": {"Postcode": "NP19 7UB", "ULEZ": "Beaufort Centre Car Park"}}, {"type": "Feature", "geometry": {"type": "Point", "coordinates": [-1.8092555, 51.5435247]}, "properties": {"Postcode": "SN1 7DE", "ULEZ": "Beckett Strand"}}, {"type": "Feature", "geometry": {"type": "Point", "coordinates": [-1.4963394, 52.4424528]}, "properties": {"Postcode": "CV6 6AR", "ULEZ": "Bedlam Lane"}}, {"type": "Feature", "geometry": {"type": "Point", "coordinates": [-1.564472, 52.4039458]}, "properties": {"Postcode": "CV4 9FG", "ULEZ": "Beech Tree Avenue"}}, {"type": "Feature", "geometry": {"type": "Point", "coordinates": [-1.5382255, 52.3977526]}, "properties": {"Postcode": "CV5 6AE", "ULEZ": "Beechwood Avenue 1"}}, {"type": "Feature", "geometry": {"type": "Point", "coordinates": [-1.5380964, 52.3981365]}, "properties": {"Postcode": "CV5 6FR", "ULEZ": "Beechwood Avenue 2"}}, {"type": "Feature", "geometry": {"type": "Point", "coordinates": [-2.2538909, 55.1447779]}, "properties": {"Postcode": "NE48 2BD", "ULEZ": "Bellingham Centre Car Park"}}, {"type": "Feature", "geometry": {"type": "Point", "coordinates": [-1.5085665, 52.3959604]}, "properties": {"Postcode": "CV3 6GZ", "ULEZ": "Benedictine Road 1"}}, {"type": "Feature", "geometry": {"type": "Point", "coordinates": [-1.5113421, 52.3942404]}, "properties": {"Postcode": "CV3 6GW", "ULEZ": "Benedictine Road 2"}}, {"type": "Feature", "geometry": {"type": "Point", "coordinates": [-3.0108728, 51.6056384]}, "properties": {"Postcode": "NP20 7AZ", "ULEZ": "Bettws Lane Car Park"}}, {"type": "Feature", "geometry": {"type": "Point", "coordinates": [-1.2142546, 51.7332176]}, "properties": {"Postcode": "OX4 3ET", "ULEZ": "Between Town Road"}}, {"type": "Feature", "geometry": {"type": "Point", "coordinates": [-2.5963309, 53.3921419]}, "properties": {"Postcode": "WA2 7JQ", "ULEZ": "Bewsey Street"}}, {"type": "Feature", "geometry": {"type": "Point", "coordinates": [-0.4531489, 51.0231578]}, "properties": {"Postcode": "RH14 9LZ", "ULEZ": "Billinghurst Library Car Park"}}, {"type": "Feature", "geometry": {"type": "Point", "coordinates": [-1.5687654, 52.425186]}, "properties": {"Postcode": "CV5 9GR", "ULEZ": "Birmingham Road"}}, {"type": "Feature", "geometry": {"type": "Point", "coordinates": [-1.5673295, 52.4247686]}, "properties": {"Postcode": "CV5 9BT", "ULEZ": "Birmingham Road 2"}}, {"type": "Feature", "geometry": {"type": "Point", "coordinates": [-1.5020143, 52.390134]}, "properties": {"Postcode": "CV3 5QP", "ULEZ": "Black Prince Avenue"}}, {"type": "Feature", "geometry": {"type": "Point", "coordinates": [-0.2000056, 51.125314]}, "properties": {"Postcode": "RH11 7QE", "ULEZ": "Blackbird Court, Nightingale Close"}}, {"type": "Feature", "geometry": {"type": "Point", "coordinates": [-1.4988923, 52.4305515]}, "properties": {"Postcode": "CV6 5JT", "ULEZ": "Blackwell Road"}}, {"type": "Feature", "geometry": {"type": "Point", "coordinates": [-1.527803, 54.137819]}, "properties": {"Postcode": "HG4 2AJ", "ULEZ": "Blossomgate Car Park"}}, {"type": "Feature", "geometry": {"type": "Point", "coordinates": [-1.4942951, 52.4154699]}, "properties": {"Postcode": "CV1 5AW", "ULEZ": "Blythe Road"}}, {"type": "Feature", "geometry": {"type": "Point", "coordinates": [-1.5814289, 52.4033975]}, "properties": {"Postcode": "CV4 9SE", "ULEZ": "Bohun Street"}}, {"type": "Feature", "geometry": {"type": "Point", "coordinates": [-0.6035776, 51.2000156]}, "properties": {"Postcode": "GU7 3NH", "ULEZ": "Bourne Road"}}, {"type": "Feature", "geometry": {"type": "Point", "coordinates": [-3.576209, 51.5049449]}, "properties": {"Postcode": "CF31 1BX", "ULEZ": "Brackla Street, Bridgend"}}, {"type": "Feature", "geometry": {"type": "Point", "coordinates": [0.273093, 51.194197]}, "properties": {"Postcode": "TN9 1AW", "ULEZ": "Bradford Street Car Park"}}, {"type": "Feature", "geometry": {"type": "Point", "coordinates": [-1.579436, 52.4015848]}, "properties": {"Postcode": "CV4 9JL", "ULEZ": "Bramston Crescent"}}, {"type": "Feature", "geometry": {"type": "Point", "coordinates": [-1.4471006, 52.3982998]}, "properties": {"Postcode": "CV3 2EY", "ULEZ": "Bredon Avenue"}}, {"type": "Feature", "geometry": {"type": "Point", "coordinates": [-1.44726, 52.3950096]}, "properties": {"Postcode": "CV3 2AA", "ULEZ": "Bredon Avenue 2"}}, {"type": "Feature", "geometry": {"type": "Point", "coordinates": [0.3908944, 51.151167]}, "properties": {"Postcode": "TN12 7NY", "ULEZ": "Brenchley Scout Hall Car Park"}}, {"type": "Feature", "geometry": {"type": "Point", "coordinates": [-1.510852, 52.3749361]}, "properties": {"Postcode": "CV3 6FL", "ULEZ": "Brentwood Avenue"}}, {"type": "Feature", "geometry": {"type": "Point", "coordinates": [-3.2075427, 51.770494]}, "properties": {"Postcode": "NP23 6BS", "ULEZ": "Briery Hill Car Park"}}, {"type": "Feature", "geometry": {"type": "Point", "coordinates": [-1.4940592, 52.422929]}, "properties": {"Postcode": "CV6 5EZ", "ULEZ": "Bright Street"}}, {"type": "Feature", "geometry": {"type": "Point", "coordinates": [-1.9131051, 52.4789158]}, "properties": {"Postcode": "B1 2JB", "ULEZ": "Brindley Place, Building 3"}}, {"type": "Feature", "geometry": {"type": "Point", "coordinates": [-1.9141542, 52.4783957]}, "properties": {"Postcode": "B1 2JF", "ULEZ": "Brindley Place, Building 4"}}, {"type": "Feature", "geometry": {"type": "Point", "coordinates": [-1.9126891, 52.4774809]}, "properties": {"Postcode": "B1 2JF", "ULEZ": "Brindley Place, Building 6"}}, {"type": "Feature", "geometry": {"type": "Point", "coordinates": [-1.9126479, 52.4774953]}, "properties": {"Postcode": "B1 2JF", "ULEZ": "Brindley Place, Building 9"}}, {"type": "Feature", "geometry": {"type": "Point", "coordinates": [-1.4964537, 52.4268908]}, "properties": {"Postcode": "CV6 5AX", "ULEZ": "Broad Street"}}, {"type": "Feature", "geometry": {"type": "Point", "coordinates": [-3.0837487, 51.7753467]}, "properties": {"Postcode": "NP4 9QD", "ULEZ": "Broad Street Car Park, Blaenavon"}}, {"type": "Feature", "geometry": {"type": "Point", "coordinates": [-4.2544756, 55.8902004]}, "properties": {"Postcode": "G22 6SP", "ULEZ": "Broadholm Street"}}, {"type": "Feature", "geometry": {"type": "Point", "coordinates": [-3.2922986, 51.392234]}, "properties": {"Postcode": "CF62 6SW", "ULEZ": "Bron Y Mor Car Park, Vale of Glamorgan"}}, {"type": "Feature", "geometry": {"type": "Point", "coordinates": [1.142315, 51.087592]}, "properties": {"Postcode": "CT19 4DH", "ULEZ": "Broomfield Road Car Park"}}, {"type": "Feature", "geometry": {"type": "Point", "coordinates": [-2.6789912, 52.969668]}, "properties": {"Postcode": "SY13 1QW", "ULEZ": "Brownlow Street"}}, {"type": "Feature", "geometry": {"type": "Point", "coordinates": [-1.5363538, 52.433556]}, "properties": {"Postcode": "CV6 2AS", "ULEZ": "Brownshill Green Road"}}, {"type": "Feature", "geometry": {"type": "Point", "coordinates": [-3.9161744, 56.094755]}, "properties": {"Postcode": "FK7 0AG", "ULEZ": "Bruce Field Children\u00e2\u20ac\u2122s Home"}}, {"type": "Feature", "geometry": {"type": "Point", "coordinates": [-3.057806, 55.94375]}, "properties": {"Postcode": "EH21 6AF", "ULEZ": "Brunton Hall, Bridge Street"}}, {"type": "Feature", "geometry": {"type": "Point", "coordinates": [-3.2693131, 51.7843393]}, "properties": {"Postcode": "NP22 3AY", "ULEZ": "Bryn Bach Car Park, Blaenau Gwent"}}, {"type": "Feature", "geometry": {"type": "Point", "coordinates": [-3.2794203, 51.4005113]}, "properties": {"Postcode": "CF62 5QL", "ULEZ": "BSC2 Innovation Quarter Car Park"}}, {"type": "Feature", "geometry": {"type": "Point", "coordinates": [-1.5837166, 52.4006011]}, "properties": {"Postcode": "CV4 9JS", "ULEZ": "Bullfield Avenue"}}, {"type": "Feature", "geometry": {"type": "Point", "coordinates": [-1.5815772, 52.4031476]}, "properties": {"Postcode": "CV4 9NR", "ULEZ": "Bushberry Avenue 2"}}, {"type": "Feature", "geometry": {"type": "Point", "coordinates": [-1.5819309, 52.4027187]}, "properties": {"Postcode": "CV4 9NR", "ULEZ": "Bushbery Avenue"}}, {"type": "Feature", "geometry": {"type": "Point", "coordinates": [0.5083663, 51.7451675]}, "properties": {"Postcode": "CM2 5PX", "ULEZ": "Buttercup Montessori"}}, {"type": "Feature", "geometry": {"type": "Point", "coordinates": [-3.0219174, 51.8209982]}, "properties": {"Postcode": "NP7 5DL", "ULEZ": "Byefield Lane Car Park"}}, {"type": "Feature", "geometry": {"type": "Point", "coordinates": [-4.1176542, 50.375727]}, "properties": {"Postcode": "PL4 9EW", "ULEZ": "Camarthen Road"}}, {"type": "Feature", "geometry": {"type": "Point", "coordinates": [0.1389273, 52.234278]}, "properties": {"Postcode": "CB4 0WG", "ULEZ": "Cambridge Science Park"}}, {"type": "Feature", "geometry": {"type": "Point", "coordinates": [-1.4861122, 52.415539]}, "properties": {"Postcode": "CV2 4PZ", "ULEZ": "Camden Street"}}, {"type": "Feature", "geometry": {"type": "Point", "coordinates": [-3.1829053, 51.741597]}, "properties": {"Postcode": "NP23 7TH", "ULEZ": "Canning Street Car Park"}}, {"type": "Feature", "geometry": {"type": "Point", "coordinates": [-0.1116231, 51.4638009]}, "properties": {"Postcode": "SW9 7PR", "ULEZ": "Canterbury Gardens Estate"}}, {"type": "Feature", "geometry": {"type": "Point", "coordinates": [-0.395769, 50.819359]}, "properties": {"Postcode": "BN13 1RL", "ULEZ": "Canterbury Road"}}, {"type": "Feature", "geometry": {"type": "Point", "coordinates": [-3.036521, 55.916962]}, "properties": {"Postcode": "EH21 8PJ", "ULEZ": "Carberry Court, Whitecraig"}}, {"type": "Feature", "geometry": {"type": "Point", "coordinates": [-1.490785, 52.4361336]}, "properties": {"Postcode": "CV6 7DT", "ULEZ": "Carlton Road"}}, {"type": "Feature", "geometry": {"type": "Point", "coordinates": [-1.4466044, 52.3928239]}, "properties": {"Postcode": "CV3 2EP", "ULEZ": "Carnbroe Avenue"}}, {"type": "Feature", "geometry": {"type": "Point", "coordinates": [-3.3789494, 51.7486335]}, "properties": {"Postcode": "CF47 8JD", "ULEZ": "Castle Car Park, Castle Yard"}}, {"type": "Feature", "geometry": {"type": "Point", "coordinates": [1.14755, 51.073563]}, "properties": {"Postcode": "CT20 3AQ", "ULEZ": "Castle Road Car Park"}}, {"type": "Feature", "geometry": {"type": "Point", "coordinates": [-1.4987804, 52.3926315]}, "properties": {"Postcode": "CV3 5LZ", "ULEZ": "Cecily Road"}}, {"type": "Feature", "geometry": {"type": "Point", "coordinates": [-1.5396877, 52.418502]}, "properties": {"Postcode": "CV6 1FB", "ULEZ": "Cedars Avenue"}}, {"type": "Feature", "geometry": {"type": "Point", "coordinates": [0.9951523, 51.0253044]}, "properties": {"Postcode": "TN29 0TD", "ULEZ": "Central Car Park"}}, {"type": "Feature", "geometry": {"type": "Point", "coordinates": [-1.8051942, 51.5462162]}, "properties": {"Postcode": "SN1 7NU", "ULEZ": "Chaddington Strand, Mill Lane"}}, {"type": "Feature", "geometry": {"type": "Point", "coordinates": [-3.1864536, 55.9702319]}, "properties": {"Postcode": "EH6 5PY", "ULEZ": "Changeworks"}}, {"type": "Feature", "geometry": {"type": "Point", "coordinates": [-1.466341, 54.0070831]}, "properties": {"Postcode": "HG5 8AN", "ULEZ": "Chapel Street Car Park"}}, {"type": "Feature", "geometry": {"type": "Point", "coordinates": [-1.97472, 50.794914]}, "properties": {"Postcode": "BH21 2TR", "ULEZ": "Charles Keightley Court"}}, {"type": "Feature", "geometry": {"type": "Point", "coordinates": [-1.5039942, 52.3800195]}, "properties": {"Postcode": "CV3 5AD", "ULEZ": "Charminster Drive 1"}}, {"type": "Feature", "geometry": {"type": "Point", "coordinates": [-1.5034368, 52.3804358]}, "properties": {"Postcode": "CV3 5AD", "ULEZ": "Charminster Drive 2"}}, {"type": "Feature", "geometry": {"type": "Point", "coordinates": [-1.5060266, 52.3796286]}, "properties": {"Postcode": "CV3 5AA", "ULEZ": "Charminster Drive 3"}}, {"type": "Feature", "geometry": {"type": "Point", "coordinates": [1.0191028, 51.2557497]}, "properties": {"Postcode": "CT4 7HZ", "ULEZ": "Chartham Village Hall"}}, {"type": "Feature", "geometry": {"type": "Point", "coordinates": [-1.4728278, 52.3847009]}, "properties": {"Postcode": "CV3 3AD", "ULEZ": "Chase Avenue 1"}}, {"type": "Feature", "geometry": {"type": "Point", "coordinates": [-1.4718584, 52.3857153]}, "properties": {"Postcode": "CV3 3AB", "ULEZ": "Chase Avenue 2"}}, {"type": "Feature", "geometry": {"type": "Point", "coordinates": [-1.4712134, 52.3874083]}, "properties": {"Postcode": "CV3 3JG", "ULEZ": "Chase Avenue 3"}}, {"type": "Feature", "geometry": {"type": "Point", "coordinates": [-1.5431644, 52.417859]}, "properties": {"Postcode": "CV6 1PE", "ULEZ": "Chelveston Road"}}, {"type": "Feature", "geometry": {"type": "Point", "coordinates": [-2.682751, 51.6454815]}, "properties": {"Postcode": "NP16 5NZ", "ULEZ": "Chepstow Leisure Centre Car Park"}}, {"type": "Feature", "geometry": {"type": "Point", "coordinates": [-0.0045971, 51.125279]}, "properties": {"Postcode": "RH19 3AZ", "ULEZ": "Chequer Mead Car Park"}}, {"type": "Feature", "geometry": {"type": "Point", "coordinates": [-1.4765428, 52.4430318]}, "properties": {"Postcode": "CV6 7LP", "ULEZ": "Chesford Crescent 1"}}, {"type": "Feature", "geometry": {"type": "Point", "coordinates": [-1.4777824, 52.4432378]}, "properties": {"Postcode": "CV6 7LP", "ULEZ": "Chesford Crescent 2"}}, {"type": "Feature", "geometry": {"type": "Point", "coordinates": [-0.36405, 50.81909]}, "properties": {"Postcode": "BN11 2AA", "ULEZ": "Chesswood Road"}}, {"type": "Feature", "geometry": {"type": "Point", "coordinates": [-1.5219873, 52.4119394]}, "properties": {"Postcode": "CV1 4DJ", "ULEZ": "Chester Street"}}, {"type": "Feature", "geometry": {"type": "Point", "coordinates": [-1.5615977, 52.4152893]}, "properties": {"Postcode": "CV5 9NA", "ULEZ": "Chetwode Close"}}, {"type": "Feature", "geometry": {"type": "Point", "coordinates": [-2.482172, 52.3795]}, "properties": {"Postcode": "DY14 8PB", "ULEZ": "Childe Road (West)"}}, {"type": "Feature", "geometry": {"type": "Point", "coordinates": [0.941354, 50.98546]}, "properties": {"Postcode": "TN28 8AS", "ULEZ": "Church Road Car Park"}}, {"type": "Feature", "geometry": {"type": "Point", "coordinates": [-2.5127587, 56.0001112]}, "properties": {"Postcode": "EH42 1HA", "ULEZ": "Church Street"}}, {"type": "Feature", "geometry": {"type": "Point", "coordinates": [-0.3288482, 51.2945425]}, "properties": {"Postcode": "KT22 8EE", "ULEZ": "Church Street"}}, {"type": "Feature", "geometry": {"type": "Point", "coordinates": [-2.9568763, 51.6113684]}, "properties": {"Postcode": "NP18 1AW", "ULEZ": "Church Street Car Park, Caerleon"}}, {"type": "Feature", "geometry": {"type": "Point", "coordinates": [-0.3568229, 50.81472]}, "properties": {"Postcode": "BN11 2ND", "ULEZ": "Church Walk"}}, {"type": "Feature", "geometry": {"type": "Point", "coordinates": [-1.4962439, 52.4332694]}, "properties": {"Postcode": "CV6 5GT", "ULEZ": "Churchill Avenue"}}, {"type": "Feature", "geometry": {"type": "Point", "coordinates": [-2.963152, 55.922392]}, "properties": {"Postcode": "EH33 2LR", "ULEZ": "Cinderhall Place, Elphinstone"}}, {"type": "Feature", "geometry": {"type": "Point", "coordinates": [1.1698401, 51.0794956]}, "properties": {"Postcode": "CT20 2QY", "ULEZ": "Civic Centre Visitors Car Park"}}, {"type": "Feature", "geometry": {"type": "Point", "coordinates": [0.3369374, 52.3313308]}, "properties": {"Postcode": "CB7 5RL", "ULEZ": "Clay Street Car Park"}}, {"type": "Feature", "geometry": {"type": "Point", "coordinates": [-1.5403633, 52.418576]}, "properties": {"Postcode": "CV6 1FB", "ULEZ": "Clayton Road"}}, {"type": "Feature", "geometry": {"type": "Point", "coordinates": [-1.4841593, 52.4154312]}, "properties": {"Postcode": "CV2 4QD", "ULEZ": "Cleveland Road"}}, {"type": "Feature", "geometry": {"type": "Point", "coordinates": [-1.0653103, 54.2467847]}, "properties": {"Postcode": "YO62 5AT", "ULEZ": "Cleveland Way Car Park"}}, {"type": "Feature", "geometry": {"type": "Point", "coordinates": [-3.1718596, 51.4274502]}, "properties": {"Postcode": "CF64 5BP", "ULEZ": "Cliff Parade Car Park, Vale Of Glamorgan"}}, {"type": "Feature", "geometry": {"type": "Point", "coordinates": [-1.4886211, 52.4413524]}, "properties": {"Postcode": "CV6 7AL", "ULEZ": "Clinton Road"}}, {"type": "Feature", "geometry": {"type": "Point", "coordinates": [-1.4886686, 52.4412764]}, "properties": {"Postcode": "CV6 7AL", "ULEZ": "Clinton Road 2"}}, {"type": "Feature", "geometry": {"type": "Point", "coordinates": [-0.0879574, 51.5570592]}, "properties": {"Postcode": "N16 9AS", "ULEZ": "Clissold Crescent, Hackney"}}, {"type": "Feature", "geometry": {"type": "Point", "coordinates": [1.1779683, 51.0765805]}, "properties": {"Postcode": "CT20 2DR", "ULEZ": "Coastal Car Park"}}, {"type": "Feature", "geometry": {"type": "Point", "coordinates": [-4.1255173, 50.3805391]}, "properties": {"Postcode": "PL4 7PA", "ULEZ": "Coleridge Road"}}, {"type": "Feature", "geometry": {"type": "Point", "coordinates": [-0.734023, 51.525968]}, "properties": {"Postcode": "SL6 6BB", "ULEZ": "College Road"}}, {"type": "Feature", "geometry": {"type": "Point", "coordinates": [-3.2208841, 51.502182]}, "properties": {"Postcode": "CF14 2HJ", "ULEZ": "College Road, Cardiff"}}, {"type": "Feature", "geometry": {"type": "Point", "coordinates": [-1.593356, 52.4156615]}, "properties": {"Postcode": "CV5 7ES", "ULEZ": "Coniston Drive 1"}}, {"type": "Feature", "geometry": {"type": "Point", "coordinates": [-1.5932592, 52.4160038]}, "properties": {"Postcode": "CV5 7ES", "ULEZ": "Coniston Drive 2"}}, {"type": "Feature", "geometry": {"type": "Point", "coordinates": [-0.3281473, 51.304141]}, "properties": {"Postcode": "KT22 7ED", "ULEZ": "Copthorne Road"}}, {"type": "Feature", "geometry": {"type": "Point", "coordinates": [-1.504839, 52.395184]}, "properties": {"Postcode": "CV3 5FG", "ULEZ": "Cornelius Street"}}, {"type": "Feature", "geometry": {"type": "Point", "coordinates": [-2.834212, 52.44084]}, "properties": {"Postcode": "SY7 9NE", "ULEZ": "Corvedale Road"}}, {"type": "Feature", "geometry": {"type": "Point", "coordinates": [-3.1822916, 51.4159384]}, "properties": {"Postcode": "CF64 5UY", "ULEZ": "Cosmeston Lakes Country Car Park, Vale Of Glamorgan"}}, {"type": "Feature", "geometry": {"type": "Point", "coordinates": [-0.1079015, 51.4909051]}, "properties": {"Postcode": "SE11 4NX", "ULEZ": "Cotton Gardens Estate"}}, {"type": "Feature", "geometry": {"type": "Point", "coordinates": [-3.4464387, 51.4624623]}, "properties": {"Postcode": "CF71 7DD", "ULEZ": "Cowbridge Town Hall Car Park, Cowbridge"}}, {"type": "Feature", "geometry": {"type": "Point", "coordinates": [-1.4910862, 52.416166]}, "properties": {"Postcode": "CV1 5AX", "ULEZ": "Craners Road"}}, {"type": "Feature", "geometry": {"type": "Point", "coordinates": [-2.8396087, 52.4447464]}, "properties": {"Postcode": "SY7 8NR", "ULEZ": "Craven Arms"}}, {"type": "Feature", "geometry": {"type": "Point", "coordinates": [-0.7396164, 51.5252587]}, "properties": {"Postcode": "SL6 6LZ", "ULEZ": "Cromwell Road"}}, {"type": "Feature", "geometry": {"type": "Point", "coordinates": [-1.49345, 52.4218308]}, "properties": {"Postcode": "CV6 5EZ", "ULEZ": "Cromwell Street"}}, {"type": "Feature", "geometry": {"type": "Point", "coordinates": [-3.0858618, 51.7714298]}, "properties": {"Postcode": "NP4 9BD", "ULEZ": "Curwood Road, Torfaen"}}, {"type": "Feature", "geometry": {"type": "Point", "coordinates": [-0.486177, 52.1390962]}, "properties": {"Postcode": "MK40 4DD", "ULEZ": "Cutcliffe Grove"}}, {"type": "Feature", "geometry": {"type": "Point", "coordinates": [-3.1813484, 51.7414575]}, "properties": {"Postcode": "NP23 7RR", "ULEZ": "Cwm Terrace Car Park, Ebbw Vale"}}, {"type": "Feature", "geometry": {"type": "Point", "coordinates": [-3.0053677, 51.6408105]}, "properties": {"Postcode": "NP44 8HT", "ULEZ": "Cwmbran Boating Lake"}}, {"type": "Feature", "geometry": {"type": "Point", "coordinates": [-3.020472, 51.644167]}, "properties": {"Postcode": "NP44 3YS", "ULEZ": "Cwmbran Stadium Car Park"}}, {"type": "Feature", "geometry": {"type": "Point", "coordinates": [-3.0232276, 51.6485033]}, "properties": {"Postcode": "NP44 3JS", "ULEZ": "Cwmbran Village Surgery Car Park, Torfaen"}}, {"type": "Feature", "geometry": {"type": "Point", "coordinates": [0.3462036, 51.4313724]}, "properties": {"Postcode": "DA11 8BU", "ULEZ": "Cygnet Leisure Centre"}}, {"type": "Feature", "geometry": {"type": "Point", "coordinates": [-1.5445148, 52.4222423]}, "properties": {"Postcode": "CV6 1FU", "ULEZ": "Dallington Road"}}, {"type": "Feature", "geometry": {"type": "Point", "coordinates": [0.2461792, 51.3996573]}, "properties": {"Postcode": "DA4 9EX", "ULEZ": "Darenth Village Hall Car Park"}}, {"type": "Feature", "geometry": {"type": "Point", "coordinates": [1.3999843, 51.2132847]}, "properties": {"Postcode": "CT14 7EQ", "ULEZ": "Deal Memorial Car Park"}}, {"type": "Feature", "geometry": {"type": "Point", "coordinates": [1.3983589, 51.2136136]}, "properties": {"Postcode": "CT14 7EJ", "ULEZ": "Deal Rugby Club"}}, {"type": "Feature", "geometry": {"type": "Point", "coordinates": [-1.4466382, 52.397732]}, "properties": {"Postcode": "CV3 2EQ", "ULEZ": "Deerdale Way"}}, {"type": "Feature", "geometry": {"type": "Point", "coordinates": [-0.0789154, 51.5617029]}, "properties": {"Postcode": "N16 0EF", "ULEZ": "Defoe Road, Hackney"}}, {"type": "Feature", "geometry": {"type": "Point", "coordinates": [-1.4719072, 52.3841658]}, "properties": {"Postcode": "CV3 3AA", "ULEZ": "Dell Close"}}, {"type": "Feature", "geometry": {"type": "Point", "coordinates": [-1.5383696, 52.420816]}, "properties": {"Postcode": "CV6 1GU", "ULEZ": "Denbeigh Road"}}, {"type": "Feature", "geometry": {"type": "Point", "coordinates": [-0.0820474, 51.0123718]}, "properties": {"Postcode": "RH16 2LA", "ULEZ": "Denmans Lane Car Park"}}, {"type": "Feature", "geometry": {"type": "Point", "coordinates": [0.2817526, 50.7641855]}, "properties": {"Postcode": "BN21 4JJ", "ULEZ": "Devonshire Park Car Park"}}, {"type": "Feature", "geometry": {"type": "Point", "coordinates": [-3.350074, 57.470459]}, "properties": {"Postcode": "AB38 7RY", "ULEZ": "Diageo Cardhu Distillery"}}, {"type": "Feature", "geometry": {"type": "Point", "coordinates": [-1.497726, 52.387269]}, "properties": {"Postcode": "CV3 5EP", "ULEZ": "Dillotford Avenue 1"}}, {"type": "Feature", "geometry": {"type": "Point", "coordinates": [-1.1669457, 52.3616903]}, "properties": {"Postcode": "NN6 7FT", "ULEZ": "DIRFT, The Amenity Hub, Danes Way"}}, {"type": "Feature", "geometry": {"type": "Point", "coordinates": [0.4553173, 51.2941854]}, "properties": {"Postcode": "ME20 6AH", "ULEZ": "Ditton Community Centre, Kiln Barn Road"}}, {"type": "Feature", "geometry": {"type": "Point", "coordinates": [0.771261, 51.2814855]}, "properties": {"Postcode": "ME9 0BH", "ULEZ": "Doddington Village Hall"}}, {"type": "Feature", "geometry": {"type": "Point", "coordinates": [-0.7296251, 52.0862635]}, "properties": {"Postcode": "MK16 8BB", "ULEZ": "Dovecote Close, Newport Pagnall"}}, {"type": "Feature", "geometry": {"type": "Point", "coordinates": [1.304205, 51.1506583]}, "properties": {"Postcode": "CT16 3FH", "ULEZ": "Dover Leisure Centre"}}, {"type": "Feature", "geometry": {"type": "Point", "coordinates": [-1.5128163, 52.4138367]}, "properties": {"Postcode": "CV1 4RG", "ULEZ": "Draper's Field 1"}}, {"type": "Feature", "geometry": {"type": "Point", "coordinates": [-1.5124079, 52.4140335]}, "properties": {"Postcode": "CV1 4RB", "ULEZ": "Draper's Field 2"}}, {"type": "Feature", "geometry": {"type": "Point", "coordinates": [-1.5119831, 52.4141628]}, "properties": {"Postcode": "CV1 4RB", "ULEZ": "Draper's Field 3"}}, {"type": "Feature", "geometry": {"type": "Point", "coordinates": [-3.0255726, 51.560398]}, "properties": {"Postcode": "NP10 8TE", "ULEZ": "Duffryn Community Centre"}}, {"type": "Feature", "geometry": {"type": "Point", "coordinates": [-2.716227, 56.054195]}, "properties": {"Postcode": "EH39 4EQ", "ULEZ": "Dundas Road, East Lothian"}}, {"type": "Feature", "geometry": {"type": "Point", "coordinates": [-1.4702191, 52.3877165]}, "properties": {"Postcode": "CV3 3JF", "ULEZ": "Dunsmore Avenue 1"}}, {"type": "Feature", "geometry": {"type": "Point", "coordinates": [-1.4705111, 52.3877757]}, "properties": {"Postcode": "CV3 3JF", "ULEZ": "Dunsmore Avenue 2"}}, {"type": "Feature", "geometry": {"type": "Point", "coordinates": [-1.5045623, 52.4328164]}, "properties": {"Postcode": "CV6 5LW", "ULEZ": "Durbar Avenue"}}, {"type": "Feature", "geometry": {"type": "Point", "coordinates": [-3.5071703, 51.6582684]}, "properties": {"Postcode": "CF42 6UD", "ULEZ": "Dyfodwg Street Car Park"}}, {"type": "Feature", "geometry": {"type": "Point", "coordinates": [0.9950076, 51.0249231]}, "properties": {"Postcode": "TN29 0NX", "ULEZ": "Dymchurch Village Hall"}}, {"type": "Feature", "geometry": {"type": "Point", "coordinates": [-0.3928043, 54.284304]}, "properties": {"Postcode": "YO11 1QN", "ULEZ": "East Borough Car Park"}}, {"type": "Feature", "geometry": {"type": "Point", "coordinates": [1.1963155, 51.0840069]}, "properties": {"Postcode": "CT19 6BL", "ULEZ": "East Cliff Pavillion Car Park"}}, {"type": "Feature", "geometry": {"type": "Point", "coordinates": [-2.9820333, 51.5794027]}, "properties": {"Postcode": "NP20 2GA", "ULEZ": "East Dock Road, Newport"}}, {"type": "Feature", "geometry": {"type": "Point", "coordinates": [-3.7005162, 51.4759625]}, "properties": {"Postcode": "CF36 5TS", "ULEZ": "Eastern Promenade"}}, {"type": "Feature", "geometry": {"type": "Point", "coordinates": [-0.7738954, 54.2442318]}, "properties": {"Postcode": "YO18 7DP", "ULEZ": "Eastgate Square Car Park"}}, {"type": "Feature", "geometry": {"type": "Point", "coordinates": [-3.1974827, 51.7576896]}, "properties": {"Postcode": "NP23 8AN", "ULEZ": "Ebbw Vale Parkway Station"}}, {"type": "Feature", "geometry": {"type": "Point", "coordinates": [0.3751096, 51.4311515]}, "properties": {"Postcode": "DA12 5PE", "ULEZ": "Echo Square Car Park"}}, {"type": "Feature", "geometry": {"type": "Point", "coordinates": [-1.4877637, 52.428426]}, "properties": {"Postcode": "CV6 5HH", "ULEZ": "Eden Street"}}, {"type": "Feature", "geometry": {"type": "Point", "coordinates": [-3.03798, 55.938002]}, "properties": {"Postcode": "EH21 7JQ", "ULEZ": "Edenhall Bank, East Lothian"}}, {"type": "Feature", "geometry": {"type": "Point", "coordinates": [-1.4952749, 52.4296734]}, "properties": {"Postcode": "CV6 5BX", "ULEZ": "Eld Road"}}, {"type": "Feature", "geometry": {"type": "Point", "coordinates": [-1.4928057, 52.430416]}, "properties": {"Postcode": "CV6 5BX", "ULEZ": "Eld Road 2"}}, {"type": "Feature", "geometry": {"type": "Point", "coordinates": [-1.476651, 52.4314194]}, "properties": {"Postcode": "CV6 7JG", "ULEZ": "Elgar Road"}}, {"type": "Feature", "geometry": {"type": "Point", "coordinates": [1.1125177, 51.1570005]}, "properties": {"Postcode": "CT4 6SX", "ULEZ": "Elham Village Hall"}}, {"type": "Feature", "geometry": {"type": "Point", "coordinates": [-2.8928179, 52.907862]}, "properties": {"Postcode": "SY12 0AW", "ULEZ": "Ellesmere Cross Street Car Park"}}, {"type": "Feature", "geometry": {"type": "Point", "coordinates": [-1.515136, 52.4176469]}, "properties": {"Postcode": "CV1 4EW", "ULEZ": "Ellys Road"}}, {"type": "Feature", "geometry": {"type": "Point", "coordinates": [-0.5723419, 51.3143241]}, "properties": {"Postcode": "GU21 7PA", "ULEZ": "Elm Road"}}, {"type": "Feature", "geometry": {"type": "Point", "coordinates": [-1.561418, 52.405567]}, "properties": {"Postcode": "CV4 9EN", "ULEZ": "Elm Tree Avenue"}}, {"type": "Feature", "geometry": {"type": "Point", "coordinates": [-1.491543, 52.4409561]}, "properties": {"Postcode": "CV6 6ES", "ULEZ": "Elmsdale Avenue 1"}}, {"type": "Feature", "geometry": {"type": "Point", "coordinates": [-1.4912147, 52.4409204]}, "properties": {"Postcode": "CV6 6ES", "ULEZ": "Elmsdale Avenue 2"}}, {"type": "Feature", "geometry": {"type": "Point", "coordinates": [-0.8181574, 52.0587735]}, "properties": {"Postcode": "MK12 5BA", "ULEZ": "Eton Crescent, Wolverton"}}, {"type": "Feature", "geometry": {"type": "Point", "coordinates": [-3.0173135, 51.82588]}, "properties": {"Postcode": "NP7 5SG", "ULEZ": "Fairfield Car Park, Abergavenny"}}, {"type": "Feature", "geometry": {"type": "Point", "coordinates": [-2.558123, 52.594516]}, "properties": {"Postcode": "TF13 6PG", "ULEZ": "Falcons Court"}}, {"type": "Feature", "geometry": {"type": "Point", "coordinates": [-1.5055971, 52.3793055]}, "properties": {"Postcode": "CV3 5NJ", "ULEZ": "Fenside Avenue"}}, {"type": "Feature", "geometry": {"type": "Point", "coordinates": [-1.5641498, 52.4334163]}, "properties": {"Postcode": "CV5 9PS", "ULEZ": "Fenton Road"}}, {"type": "Feature", "geometry": {"type": "Point", "coordinates": [-2.0213784, 52.7160632]}, "properties": {"Postcode": "WS12 4HX", "ULEZ": "Fieldhouse Road, Hednesford"}}, {"type": "Feature", "geometry": {"type": "Point", "coordinates": [-3.0210004, 51.6405624]}, "properties": {"Postcode": "NP44 3EF", "ULEZ": "Fields Road, Torfaen"}}, {"type": "Feature", "geometry": {"type": "Point", "coordinates": [-1.5657861, 55.1820182]}, "properties": {"Postcode": "NE63 9DY", "ULEZ": "First Avenue, Poplar Street"}}, {"type": "Feature", "geometry": {"type": "Point", "coordinates": [-1.4960489, 52.4356953]}, "properties": {"Postcode": "CV6 5HY", "ULEZ": "Fisher Road"}}, {"type": "Feature", "geometry": {"type": "Point", "coordinates": [1.0777844, 51.0646177]}, "properties": {"Postcode": "CT21 6HG", "ULEZ": "Fishermans Beach Car Park"}}, {"type": "Feature", "geometry": {"type": "Point", "coordinates": [1.3147457, 51.1240755]}, "properties": {"Postcode": "CT16 1JW", "ULEZ": "Fishmonger's Lane Car Park"}}, {"type": "Feature", "geometry": {"type": "Point", "coordinates": [-0.5374797, 50.805187]}, "properties": {"Postcode": "BN17 5JW", "ULEZ": "Fitzalan Road"}}, {"type": "Feature", "geometry": {"type": "Point", "coordinates": [-3.575692, 51.501499]}, "properties": {"Postcode": "CF31 3HW", "ULEZ": "Five Bells Car Park"}}, {"type": "Feature", "geometry": {"type": "Point", "coordinates": [-1.5002751, 52.4271532]}, "properties": {"Postcode": "CV6 5AJ", "ULEZ": "Foleshill Road"}}, {"type": "Feature", "geometry": {"type": "Point", "coordinates": [-1.5002751, 52.4271532]}, "properties": {"Postcode": "CV6 5AJ", "ULEZ": "Foleshill Road 2"}}, {"type": "Feature", "geometry": {"type": "Point", "coordinates": [1.3049151, 51.1249993]}, "properties": {"Postcode": "CT17 9SD", "ULEZ": "Folkestone Road"}}, {"type": "Feature", "geometry": {"type": "Point", "coordinates": [-4.1737397, 50.3734341]}, "properties": {"Postcode": "PL1 4DA", "ULEZ": "Fore Street"}}, {"type": "Feature", "geometry": {"type": "Point", "coordinates": [-1.54465, 52.421629]}, "properties": {"Postcode": "CV6 1FT", "ULEZ": "Forfield Road"}}, {"type": "Feature", "geometry": {"type": "Point", "coordinates": [-1.4675616, 52.4186143]}, "properties": {"Postcode": "CV2 3EE", "ULEZ": "Forknell Avenue 1"}}, {"type": "Feature", "geometry": {"type": "Point", "coordinates": [-1.4674671, 52.4185379]}, "properties": {"Postcode": "CV2 3EE", "ULEZ": "Forknell Avenue 2"}}, {"type": "Feature", "geometry": {"type": "Point", "coordinates": [-0.607365, 51.4779939]}, "properties": {"Postcode": "SL4 3AA", "ULEZ": "Frances Road"}}, {"type": "Feature", "geometry": {"type": "Point", "coordinates": [-0.0999436, 50.9950005]}, "properties": {"Postcode": "RH16 4DF", "ULEZ": "Franklynn Road Car Park"}}, {"type": "Feature", "geometry": {"type": "Point", "coordinates": [-1.4968874, 52.3939]}, "properties": {"Postcode": "CV3 5GT", "ULEZ": "Frankpledge Road"}}, {"type": "Feature", "geometry": {"type": "Point", "coordinates": [-2.7581472, 52.7111659]}, "properties": {"Postcode": "SY3 8JX", "ULEZ": "Frankwell Quay Car Park"}}, {"type": "Feature", "geometry": {"type": "Point", "coordinates": [-1.5013632, 52.3803074]}, "properties": {"Postcode": "CV3 5NN", "ULEZ": "Fred Lee Grove 1"}}, {"type": "Feature", "geometry": {"type": "Point", "coordinates": [-1.5016388, 52.3800451]}, "properties": {"Postcode": "CV3 5NN", "ULEZ": "Fred Lee Grove 2"}}, {"type": "Feature", "geometry": {"type": "Point", "coordinates": [-1.5020058, 52.3797937]}, "properties": {"Postcode": "CV3 5NP", "ULEZ": "Fred Lee Grove 3"}}, {"type": "Feature", "geometry": {"type": "Point", "coordinates": [-1.5023326, 52.3795629]}, "properties": {"Postcode": "CV3 5NP", "ULEZ": "Fred Lee Grove 4"}}, {"type": "Feature", "geometry": {"type": "Point", "coordinates": [-1.5026894, 52.3793257]}, "properties": {"Postcode": "CV3 5NP", "ULEZ": "Fred Lee Grove 5"}}, {"type": "Feature", "geometry": {"type": "Point", "coordinates": [-1.5035416, 52.3795984]}, "properties": {"Postcode": "CV3 5NL", "ULEZ": "Fred Lee Grove 6"}}, {"type": "Feature", "geometry": {"type": "Point", "coordinates": [-0.31948, 50.827471]}, "properties": {"Postcode": "BN15 8HH", "ULEZ": "Freshbrook Road"}}, {"type": "Feature", "geometry": {"type": "Point", "coordinates": [-0.3987866, 54.2849099]}, "properties": {"Postcode": "YO11 1PL", "ULEZ": "Friars Way Car Park"}}, {"type": "Feature", "geometry": {"type": "Point", "coordinates": [-0.8158531, 52.0579125]}, "properties": {"Postcode": "MK12 5AR", "ULEZ": "Furze Way, Wolverton"}}, {"type": "Feature", "geometry": {"type": "Point", "coordinates": [-3.0186073, 51.5776684]}, "properties": {"Postcode": "NP20 3GY", "ULEZ": "Gaer Community Centre"}}, {"type": "Feature", "geometry": {"type": "Point", "coordinates": [-2.715688, 52.36927]}, "properties": {"Postcode": "SY8 1QB", "ULEZ": "Galdeford Zone A, Ludlow"}}, {"type": "Feature", "geometry": {"type": "Point", "coordinates": [-1.199856, 53.002858]}, "properties": {"Postcode": "NG6 8JQ", "ULEZ": "Gaul Street Car Park"}}, {"type": "Feature", "geometry": {"type": "Point", "coordinates": [1.3383852, 51.2782777]}, "properties": {"Postcode": "CT13 9HN", "ULEZ": "Gazen Salts Car Park"}}, {"type": "Feature", "geometry": {"type": "Point", "coordinates": [-3.201693, 51.7769298]}, "properties": {"Postcode": "NP23 8UW", "ULEZ": "General Offices Car Park (East)"}}, {"type": "Feature", "geometry": {"type": "Point", "coordinates": [-3.201728, 51.7770547]}, "properties": {"Postcode": "NP23 8UW", "ULEZ": "General Offices Car Park, Blaenau Gwent"}}, {"type": "Feature", "geometry": {"type": "Point", "coordinates": [-3.0437001, 51.7047415]}, "properties": {"Postcode": "NP4 6BZ", "ULEZ": "George Street, Torfaen"}}, {"type": "Feature", "geometry": {"type": "Point", "coordinates": [-3.4676043, 51.5827933]}, "properties": {"Postcode": "CF39 8TG", "ULEZ": "Gilfach Goch Recreation Centre, Porth"}}, {"type": "Feature", "geometry": {"type": "Point", "coordinates": [-2.6018558, 53.3936973]}, "properties": {"Postcode": "WA2 7LG", "ULEZ": "Gladstone Street"}}, {"type": "Feature", "geometry": {"type": "Point", "coordinates": [-3.1278079, 51.6201833]}, "properties": {"Postcode": "NP11 7PA", "ULEZ": "Gladstone Street, Crosskeys"}}, {"type": "Feature", "geometry": {"type": "Point", "coordinates": [-2.9876027, 51.6023088]}, "properties": {"Postcode": "NP19 7DS", "ULEZ": "Glan Usk Car Park"}}, {"type": "Feature", "geometry": {"type": "Point", "coordinates": [-4.1415828, 50.3778617]}, "properties": {"Postcode": "PL4 6BD", "ULEZ": "Glen Park Avenue"}}, {"type": "Feature", "geometry": {"type": "Point", "coordinates": [-3.3355646, 51.6228087]}, "properties": {"Postcode": "CF37 3DA", "ULEZ": "Glyncoch Community Centre, Pontypridd (Lease)"}}, {"type": "Feature", "geometry": {"type": "Point", "coordinates": [-2.9820555, 51.7362563]}, "properties": {"Postcode": "NP4 0BL", "ULEZ": "Goytre Village Car Park"}}, {"type": "Feature", "geometry": {"type": "Point", "coordinates": [-0.030095, 50.937918]}, "properties": {"Postcode": "BN8 4FP", "ULEZ": "Gradwell Park - Retirement Village, South Chailey"}}, {"type": "Feature", "geometry": {"type": "Point", "coordinates": [-1.4466599, 52.3912314]}, "properties": {"Postcode": "CV3 2ED", "ULEZ": "Grange Avenue"}}, {"type": "Feature", "geometry": {"type": "Point", "coordinates": [-1.5821385, 52.4014699]}, "properties": {"Postcode": "CV4 9JN", "ULEZ": "Gravel Hill Road 1"}}, {"type": "Feature", "geometry": {"type": "Point", "coordinates": [-1.5807058, 52.4011439]}, "properties": {"Postcode": "CV4 9JW", "ULEZ": "Gravel Hill Road 2"}}, {"type": "Feature", "geometry": {"type": "Point", "coordinates": [-1.5798791, 52.399949]}, "properties": {"Postcode": "CV4 9JD", "ULEZ": "Gravel Hill Road 3"}}, {"type": "Feature", "geometry": {"type": "Point", "coordinates": [-1.5021302, 52.3810415]}, "properties": {"Postcode": "CV3 5AN", "ULEZ": "Gregory Hood Road"}}, {"type": "Feature", "geometry": {"type": "Point", "coordinates": [-0.1263717, 50.957552]}, "properties": {"Postcode": "RH15 8LE", "ULEZ": "Grove Road"}}, {"type": "Feature", "geometry": {"type": "Point", "coordinates": [1.3379325, 51.2739423]}, "properties": {"Postcode": "CT13 9ET", "ULEZ": "Guildhall Car Park"}}, {"type": "Feature", "geometry": {"type": "Point", "coordinates": [-2.709344, 53.338489]}, "properties": {"Postcode": "WA7 5RW", "ULEZ": "Halton Road"}}, {"type": "Feature", "geometry": {"type": "Point", "coordinates": [-1.4886249, 52.4160362]}, "properties": {"Postcode": "CV2 4QH", "ULEZ": "Hammond Road"}}, {"type": "Feature", "geometry": {"type": "Point", "coordinates": [-3.2282537, 51.6893636]}, "properties": {"Postcode": "CF81 8QU", "ULEZ": "Hanbury Road Car Park, Caerphilly"}}, {"type": "Feature", "geometry": {"type": "Point", "coordinates": [-3.2789879, 51.3927835]}, "properties": {"Postcode": "CF62 5BJ", "ULEZ": "Harbour Road Car Park"}}, {"type": "Feature", "geometry": {"type": "Point", "coordinates": [-1.3680344, 54.9204368]}, "properties": {"Postcode": "SR6 0NU", "ULEZ": "Harbour View, Roker"}}, {"type": "Feature", "geometry": {"type": "Point", "coordinates": [-0.254589, 50.830059]}, "properties": {"Postcode": "BN43 5PH", "ULEZ": "Harbour Way, Shoreham Beach 1"}}, {"type": "Feature", "geometry": {"type": "Point", "coordinates": [-0.265219, 50.829816]}, "properties": {"Postcode": "BN43 5BG", "ULEZ": "Harbour Way, Shoreham Beach 2"}}, {"type": "Feature", "geometry": {"type": "Point", "coordinates": [-2.9991688, 52.4927319]}, "properties": {"Postcode": "SY9 5AH", "ULEZ": "Harley Jenkins Street"}}, {"type": "Feature", "geometry": {"type": "Point", "coordinates": [-1.4935198, 52.4157134]}, "properties": {"Postcode": "CV1 5AY", "ULEZ": "Harnall Lane East"}}, {"type": "Feature", "geometry": {"type": "Point", "coordinates": [-2.80878, 56.34036]}, "properties": {"Postcode": "KY16 9SX", "ULEZ": "Harold Mitchell Building, Greenside Place"}}, {"type": "Feature", "geometry": {"type": "Point", "coordinates": [-1.5404413, 54.0001615]}, "properties": {"Postcode": "HG1 2AE", "ULEZ": "Harrogate Civic Centre"}}, {"type": "Feature", "geometry": {"type": "Point", "coordinates": [-3.2053525, 51.4822825]}, "properties": {"Postcode": "CF5 1QW", "ULEZ": "Harvey Street Car Park"}}, {"type": "Feature", "geometry": {"type": "Point", "coordinates": [-2.9570791, 51.5916789]}, "properties": {"Postcode": "NP19 8BN", "ULEZ": "Hatherleigh Community Centre"}}, {"type": "Feature", "geometry": {"type": "Point", "coordinates": [-3.168205, 51.461555]}, "properties": {"Postcode": "CF10 5SG", "ULEZ": "Havannah Street Car Park"}}, {"type": "Feature", "geometry": {"type": "Point", "coordinates": [-0.1015151, 50.9976176]}, "properties": {"Postcode": "RH16 3QY", "ULEZ": "Hazelgrove Car Park"}}, {"type": "Feature", "geometry": {"type": "Point", "coordinates": [-3.376815, 51.6812236]}, "properties": {"Postcode": "CF45 3HD", "ULEZ": "Henry Street Car Park, Mountain Ash"}}, {"type": "Feature", "geometry": {"type": "Point", "coordinates": [-3.3935644, 51.5225812]}, "properties": {"Postcode": "CF72 9DN", "ULEZ": "Heol Yr Osaf (Lease),  Rhondda Cynon Taf"}}, {"type": "Feature", "geometry": {"type": "Point", "coordinates": [0.9835173, 51.0121787]}, "properties": {"Postcode": "TN29 0RJ", "ULEZ": "High Knocke Car Park"}}, {"type": "Feature", "geometry": {"type": "Point", "coordinates": [-0.4742526, 51.3392201]}, "properties": {"Postcode": "KT14 7QS", "ULEZ": "High Road Byfleet Car Park"}}, {"type": "Feature", "geometry": {"type": "Point", "coordinates": [-0.5447403, 51.432725]}, "properties": {"Postcode": "TW20 9HY", "ULEZ": "High Street"}}, {"type": "Feature", "geometry": {"type": "Point", "coordinates": [-3.44615, 51.71294]}, "properties": {"Postcode": "CF44 7AA", "ULEZ": "High Street Car Park, Aberdare (P&D)"}}, {"type": "Feature", "geometry": {"type": "Point", "coordinates": [-0.701411, 52.155441]}, "properties": {"Postcode": "MK46 4JS", "ULEZ": "High Street, Olney"}}, {"type": "Feature", "geometry": {"type": "Point", "coordinates": [-0.8564957, 52.058921]}, "properties": {"Postcode": "MK11 1AH", "ULEZ": "High Street, Stony Stratford"}}, {"type": "Feature", "geometry": {"type": "Point", "coordinates": [-0.227927, 50.842753]}, "properties": {"Postcode": "BN42 4QS", "ULEZ": "Highdown Road"}}, {"type": "Feature", "geometry": {"type": "Point", "coordinates": [-0.1146591, 51.4387646]}, "properties": {"Postcode": "SW2 3HJ", "ULEZ": "Hill Side Road"}}, {"type": "Feature", "geometry": {"type": "Point", "coordinates": [-0.5596027, 51.3139552]}, "properties": {"Postcode": "GU22 7QW", "ULEZ": "Hill View Road"}}, {"type": "Feature", "geometry": {"type": "Point", "coordinates": [-3.7029493, 51.4770706]}, "properties": {"Postcode": "CF36 3BW", "ULEZ": "Hillsboro Place Car Park, Porthcawl"}}, {"type": "Feature", "geometry": {"type": "Point", "coordinates": [-1.3052134, 51.6682233]}, "properties": {"Postcode": "OX14 1TZ", "ULEZ": "Hilton Garden Inn Carpark"}}, {"type": "Feature", "geometry": {"type": "Point", "coordinates": [-0.7282787, 52.0802413]}, "properties": {"Postcode": "MK16 0LW", "ULEZ": "Holland Way, Newport Pagnell"}}, {"type": "Feature", "geometry": {"type": "Point", "coordinates": [-0.3279509, 51.2140157]}, "properties": {"Postcode": "RH5 4HR", "ULEZ": "Holmesdale Road"}}, {"type": "Feature", "geometry": {"type": "Point", "coordinates": [-1.4743308, 52.4404192]}, "properties": {"Postcode": "CV2 1JG", "ULEZ": "Honey Suckle Drive"}}, {"type": "Feature", "geometry": {"type": "Point", "coordinates": [-1.4741774, 52.4417458]}, "properties": {"Postcode": "CV2 1JG", "ULEZ": "Honey Suckle Drive 2"}}, {"type": "Feature", "geometry": {"type": "Point", "coordinates": [-1.5269132, 53.9803636]}, "properties": {"Postcode": "HG2 8QJ", "ULEZ": "Hornbeam Park Railway Station Car Park"}}, {"type": "Feature", "geometry": {"type": "Point", "coordinates": [-4.1795602, 50.4190784]}, "properties": {"Postcode": "PL5 2TQ", "ULEZ": "Hornchurch Road"}}, {"type": "Feature", "geometry": {"type": "Point", "coordinates": [-0.356782, 51.06085]}, "properties": {"Postcode": "RH12 1GF", "ULEZ": "Horsham Fire Station"}}, {"type": "Feature", "geometry": {"type": "Point", "coordinates": [0.240945, 51.393987]}, "properties": {"Postcode": "DA4 9GR", "ULEZ": "Horton  Kirby and South Darenth Westminster Field Car Park"}}, {"type": "Feature", "geometry": {"type": "Point", "coordinates": [-4.1310263, 50.3769459]}, "properties": {"Postcode": "PL4 8NP", "ULEZ": "Hospital Road"}}, {"type": "Feature", "geometry": {"type": "Point", "coordinates": [-1.5144405, 52.3955462]}, "properties": {"Postcode": "CV3 6HX", "ULEZ": "Humphrey Burtons Road 1"}}, {"type": "Feature", "geometry": {"type": "Point", "coordinates": [-1.5153327, 52.3951092]}, "properties": {"Postcode": "CV3 6JD", "ULEZ": "Humphrey Burtons Road 2"}}, {"type": "Feature", "geometry": {"type": "Point", "coordinates": [0.2819022, 50.7676089]}, "properties": {"Postcode": "BN21 4PT", "ULEZ": "Hyde Gardens Car Park"}}, {"type": "Feature", "geometry": {"type": "Point", "coordinates": [-0.2062908, 51.12201]}, "properties": {"Postcode": "RH11 0BT", "ULEZ": "Ifield Drive"}}, {"type": "Feature", "geometry": {"type": "Point", "coordinates": [-1.580194, 52.4037106]}, "properties": {"Postcode": "CV4 9SL", "ULEZ": "James Green Road"}}, {"type": "Feature", "geometry": {"type": "Point", "coordinates": [-0.1061605, 51.4344785]}, "properties": {"Postcode": "SE27 0BB", "ULEZ": "Jeston House"}}, {"type": "Feature", "geometry": {"type": "Point", "coordinates": [-2.7802947, 55.954091]}, "properties": {"Postcode": "EH41 3DR", "ULEZ": "John Muir House, East Lothian"}}, {"type": "Feature", "geometry": {"type": "Point", "coordinates": [-3.2721299, 51.4040911]}, "properties": {"Postcode": "CF63 4HD", "ULEZ": "Kendrick Road Car Park, Vale of Glamorgan"}}, {"type": "Feature", "geometry": {"type": "Point", "coordinates": [-0.7568449, 51.9972318]}, "properties": {"Postcode": "MK3 7AX", "ULEZ": "Kennet Drive, Bletchley"}}, {"type": "Feature", "geometry": {"type": "Point", "coordinates": [-1.5470047, 52.4235079]}, "properties": {"Postcode": "CV6 1PL", "ULEZ": "Kingsbury Road"}}, {"type": "Feature", "geometry": {"type": "Point", "coordinates": [-1.274381, 52.895048]}, "properties": {"Postcode": "NG10 1BU", "ULEZ": "Lacemaker Court, Tamworth Road"}}, {"type": "Feature", "geometry": {"type": "Point", "coordinates": [-0.7591387, 51.9923774]}, "properties": {"Postcode": "MK3 6AA", "ULEZ": "Lancaster Gate, Bletchley"}}, {"type": "Feature", "geometry": {"type": "Point", "coordinates": [-1.454282, 52.3952765]}, "properties": {"Postcode": "CV3 2GL", "ULEZ": "Langton Close"}}, {"type": "Feature", "geometry": {"type": "Point", "coordinates": [-1.7317044, 52.1982377]}, "properties": {"Postcode": "CV37 9PU", "ULEZ": "Lavender Meadows"}}, {"type": "Feature", "geometry": {"type": "Point", "coordinates": [0.1856015, 52.6704163]}, "properties": {"Postcode": "PE13 3TY", "ULEZ": "Legge-Bourke Court"}}, {"type": "Feature", "geometry": {"type": "Point", "coordinates": [1.2737972, 51.1440392]}, "properties": {"Postcode": "CT17 0PP", "ULEZ": "Lewisham Road"}}, {"type": "Feature", "geometry": {"type": "Point", "coordinates": [-2.6142965, 53.393142]}, "properties": {"Postcode": "WA5 1PT", "ULEZ": "Lexden Street"}}, {"type": "Feature", "geometry": {"type": "Point", "coordinates": [-1.5073649, 52.3949918]}, "properties": {"Postcode": "CV3 5FF", "ULEZ": "Lichfield Road"}}, {"type": "Feature", "geometry": {"type": "Point", "coordinates": [-3.4501952, 51.662068]}, "properties": {"Postcode": "CF434HW", "ULEZ": "Lime Street Car Park, Ferndale"}}, {"type": "Feature", "geometry": {"type": "Point", "coordinates": [-1.3045156, 52.3532228]}, "properties": {"Postcode": "CV22 7SA", "ULEZ": "Lime Tree Village Car-Park"}}, {"type": "Feature", "geometry": {"type": "Point", "coordinates": [-2.7316728, 56.0586955]}, "properties": {"Postcode": "EH39 4LU", "ULEZ": "Links Road"}}, {"type": "Feature", "geometry": {"type": "Point", "coordinates": [-1.5612997, 52.423853]}, "properties": {"Postcode": "CV5 9GN", "ULEZ": "Lion Fields Avenue"}}, {"type": "Feature", "geometry": {"type": "Point", "coordinates": [-1.5625341, 52.4248887]}, "properties": {"Postcode": "CV5 9GN", "ULEZ": "Lion Fields Avenue 2"}}, {"type": "Feature", "geometry": {"type": "Point", "coordinates": [-1.5632795, 52.4248355]}, "properties": {"Postcode": "CV5 9GL", "ULEZ": "Lion Fields Avenue 3"}}, {"type": "Feature", "geometry": {"type": "Point", "coordinates": [-2.421357, 52.534634]}, "properties": {"Postcode": "WV16 4AW", "ULEZ": "Listley Street"}}, {"type": "Feature", "geometry": {"type": "Point", "coordinates": [-2.4214143, 52.53466]}, "properties": {"Postcode": "WV16 4AW", "ULEZ": "Listley Street South"}}, {"type": "Feature", "geometry": {"type": "Point", "coordinates": [-3.4413462, 51.5378138]}, "properties": {"Postcode": "CF72 9QA", "ULEZ": "Llanharan Railway Station Park and Ride"}}, {"type": "Feature", "geometry": {"type": "Point", "coordinates": [-3.13647, 51.700317]}, "properties": {"Postcode": "NP13 2RG", "ULEZ": "Llanhilleth Railway Station Park and Ride Car Park"}}, {"type": "Feature", "geometry": {"type": "Point", "coordinates": [-3.3183999, 51.5676926]}, "properties": {"Postcode": "CF38 1DN", "ULEZ": "Llantwit Fardre Leisure Centre, Pontypridd"}}, {"type": "Feature", "geometry": {"type": "Point", "coordinates": [-3.486005, 51.407861]}, "properties": {"Postcode": "CF61 1SB", "ULEZ": "Llantwit Major Town Hall Car Park, Llantwit Major"}}, {"type": "Feature", "geometry": {"type": "Point", "coordinates": [-0.0805586, 51.557331]}, "properties": {"Postcode": "N16 8RJ", "ULEZ": "Londesborough Road, Hackney"}}, {"type": "Feature", "geometry": {"type": "Point", "coordinates": [-0.3249441, 51.2375766]}, "properties": {"Postcode": "RH4 1JF", "ULEZ": "London Road"}}, {"type": "Feature", "geometry": {"type": "Point", "coordinates": [-0.503329, 51.3920893]}, "properties": {"Postcode": "KT16 8AA", "ULEZ": "London Street"}}, {"type": "Feature", "geometry": {"type": "Point", "coordinates": [-0.1055908, 51.8799674]}, "properties": {"Postcode": "SG2 7DG", "ULEZ": "Longacre"}}, {"type": "Feature", "geometry": {"type": "Point", "coordinates": [-0.0867394, 51.5653794]}, "properties": {"Postcode": "N16 5UP", "ULEZ": "Lordship Park, Hackney"}}, {"type": "Feature", "geometry": {"type": "Point", "coordinates": [-0.732679, 51.519688]}, "properties": {"Postcode": "SL6 4DD", "ULEZ": "Lower Boyndon Road"}}, {"type": "Feature", "geometry": {"type": "Point", "coordinates": [1.182866, 51.08111]}, "properties": {"Postcode": "CT20 1EZ", "ULEZ": "Lower Payers Car Park"}}, {"type": "Feature", "geometry": {"type": "Point", "coordinates": [1.1617792, 51.0735951]}, "properties": {"Postcode": "CT20 2TX", "ULEZ": "Lower Sandgate Road Car Park"}}, {"type": "Feature", "geometry": {"type": "Point", "coordinates": [-0.1575487, 51.4983308]}, "properties": {"Postcode": "SW1X 9RZ", "ULEZ": "Lowndes Lodge, Cadogan Place"}}, {"type": "Feature", "geometry": {"type": "Point", "coordinates": [-1.4893055, 52.4151978]}, "properties": {"Postcode": "CV2 4GH", "ULEZ": "Lowther Street"}}, {"type": "Feature", "geometry": {"type": "Point", "coordinates": [-1.489313, 52.4151366]}, "properties": {"Postcode": "CV2 4GH", "ULEZ": "Lowther Street 2"}}, {"type": "Feature", "geometry": {"type": "Point", "coordinates": [-1.5074175, 52.3901252]}, "properties": {"Postcode": "CV3 5DX", "ULEZ": "Lymesy Street"}}, {"type": "Feature", "geometry": {"type": "Point", "coordinates": [-1.4921832, 52.436831]}, "properties": {"Postcode": "CV6 7AE", "ULEZ": "Lynton Road"}}, {"type": "Feature", "geometry": {"type": "Point", "coordinates": [-3.4391856, 51.7131059]}, "properties": {"Postcode": "CF44 7RP", "ULEZ": "Maes Parcio'r Ynys Car Park"}}, {"type": "Feature", "geometry": {"type": "Point", "coordinates": [-3.6613873, 51.6097261]}, "properties": {"Postcode": "CF34 9DS", "ULEZ": "Maesteg Multi Storey Car Park, Bridgend"}}, {"type": "Feature", "geometry": {"type": "Point", "coordinates": [-3.091616, 51.825272]}, "properties": {"Postcode": "NP7 0AJ", "ULEZ": "Main Road Car Park, Abergavenny"}}, {"type": "Feature", "geometry": {"type": "Point", "coordinates": [-2.015618, 54.973398]}, "properties": {"Postcode": "NE45 5LA", "ULEZ": "Main Street"}}, {"type": "Feature", "geometry": {"type": "Point", "coordinates": [-1.7112397, 55.2986761]}, "properties": {"Postcode": "NE65 9PX", "ULEZ": "Main Street"}}, {"type": "Feature", "geometry": {"type": "Point", "coordinates": [-2.6503873, 56.0247108]}, "properties": {"Postcode": "EH42 1XS", "ULEZ": "Main Street, East Lothian"}}, {"type": "Feature", "geometry": {"type": "Point", "coordinates": [1.3112274, 51.1287651]}, "properties": {"Postcode": "CT16 1RL", "ULEZ": "Maison Dieu Car Park"}}, {"type": "Feature", "geometry": {"type": "Point", "coordinates": [-0.842067, 52.0564123]}, "properties": {"Postcode": "MK11 1DG", "ULEZ": "Mallets Close, Stoney Stratford"}}, {"type": "Feature", "geometry": {"type": "Point", "coordinates": [-3.0046569, 51.6106025]}, "properties": {"Postcode": "NP20 6WF", "ULEZ": "Malpas Community Centre Car Park"}}, {"type": "Feature", "geometry": {"type": "Point", "coordinates": [-3.013891, 51.616458]}, "properties": {"Postcode": "NP20 6AD", "ULEZ": "Malpas Court Car Park"}}, {"type": "Feature", "geometry": {"type": "Point", "coordinates": [-2.5704448, 53.3962762]}, "properties": {"Postcode": "WA1 3RB", "ULEZ": "Manchester Road"}}, {"type": "Feature", "geometry": {"type": "Point", "coordinates": [-1.4983852, 52.4333668]}, "properties": {"Postcode": "CV6 5LP", "ULEZ": "Mansel Street 2"}}, {"type": "Feature", "geometry": {"type": "Point", "coordinates": [-1.6563813, 54.2214642]}, "properties": {"Postcode": "HG4 4DZ", "ULEZ": "Market Place Car Park, Masham"}}, {"type": "Feature", "geometry": {"type": "Point", "coordinates": [-3.1737005, 51.7988463]}, "properties": {"Postcode": "NP23 4AJ", "ULEZ": "Market Square Car Park, Blaenau Gwent"}}, {"type": "Feature", "geometry": {"type": "Point", "coordinates": [-1.4480442, 54.825255]}, "properties": {"Postcode": "DH5 9DZ", "ULEZ": "Market Street, Hetton-le-Hole"}}, {"type": "Feature", "geometry": {"type": "Point", "coordinates": [0.3522842, 51.4345063]}, "properties": {"Postcode": "DA11 8RL", "ULEZ": "May Avenue"}}, {"type": "Feature", "geometry": {"type": "Point", "coordinates": [-4.1292592, 50.3750631]}, "properties": {"Postcode": "PL4 8PN", "ULEZ": "May Terrace, Plymouth"}}, {"type": "Feature", "geometry": {"type": "Point", "coordinates": [-1.5204948, 52.4074512]}, "properties": {"Postcode": "CV1 3LD", "ULEZ": "Meadow Street 1"}}, {"type": "Feature", "geometry": {"type": "Point", "coordinates": [-1.5199577, 52.4069061]}, "properties": {"Postcode": "CV1 3LD", "ULEZ": "Meadow Street 2"}}, {"type": "Feature", "geometry": {"type": "Point", "coordinates": [-1.5202944, 52.4061282]}, "properties": {"Postcode": "CV1 3LD", "ULEZ": "Meadow Street 3"}}, {"type": "Feature", "geometry": {"type": "Point", "coordinates": [0.5063672, 51.3906012]}, "properties": {"Postcode": "ME1 1PZ", "ULEZ": "Medway,  Corys Road"}}, {"type": "Feature", "geometry": {"type": "Point", "coordinates": [0.494028, 51.395]}, "properties": {"Postcode": "ME2 2AD", "ULEZ": "Medway, Commercial Road"}}, {"type": "Feature", "geometry": {"type": "Point", "coordinates": [0.6129648, 51.3663554]}, "properties": {"Postcode": "ME8 7SF", "ULEZ": "Medway, Station Road, Gillingham"}}, {"type": "Feature", "geometry": {"type": "Point", "coordinates": [0.3593371, 51.3648227]}, "properties": {"Postcode": "DA13 0AT", "ULEZ": "Meopham Village Hall Car-Park"}}, {"type": "Feature", "geometry": {"type": "Point", "coordinates": [-1.520577, 52.411876]}, "properties": {"Postcode": "CV1 4DL", "ULEZ": "Meriden Street"}}, {"type": "Feature", "geometry": {"type": "Point", "coordinates": [-3.3779558, 51.7396497]}, "properties": {"Postcode": "CF48 1UT", "ULEZ": "Merthyr Tydfil Leisure Centre Car Park"}}, {"type": "Feature", "geometry": {"type": "Point", "coordinates": [1.4036789, 51.2236489]}, "properties": {"Postcode": "CT14 6ER", "ULEZ": "Middle Street Car Park"}}, {"type": "Feature", "geometry": {"type": "Point", "coordinates": [-1.519445, 52.412287]}, "properties": {"Postcode": "CV1 4AW", "ULEZ": "Middleborough Road"}}, {"type": "Feature", "geometry": {"type": "Point", "coordinates": [-0.7549046, 51.9990863]}, "properties": {"Postcode": "MK3 7JA", "ULEZ": "Middlesex Drive, Bletchley"}}, {"type": "Feature", "geometry": {"type": "Point", "coordinates": [-0.5647349, 51.3095523]}, "properties": {"Postcode": "GU22 7LQ", "ULEZ": "Midhope Road"}}, {"type": "Feature", "geometry": {"type": "Point", "coordinates": [1.0802127, 51.0715313]}, "properties": {"Postcode": "CT21 5BJ", "ULEZ": "Military Road Cark Park"}}, {"type": "Feature", "geometry": {"type": "Point", "coordinates": [-1.8079514, 51.5432033]}, "properties": {"Postcode": "SN1 7DE", "ULEZ": "Mill Lane"}}, {"type": "Feature", "geometry": {"type": "Point", "coordinates": [-2.7208584, 52.3666422]}, "properties": {"Postcode": "SY8 1BG", "ULEZ": "Mill Street, Ludlow"}}, {"type": "Feature", "geometry": {"type": "Point", "coordinates": [-0.33814, 50.83518]}, "properties": {"Postcode": "BN15 0DN", "ULEZ": "Millfield Road"}}, {"type": "Feature", "geometry": {"type": "Point", "coordinates": [-1.5223576, 52.4106032]}, "properties": {"Postcode": "CV1 3AD", "ULEZ": "Minster Road 1"}}, {"type": "Feature", "geometry": {"type": "Point", "coordinates": [-1.5230779, 52.4095594]}, "properties": {"Postcode": "CV1 3AF", "ULEZ": "Minster Road 2"}}, {"type": "Feature", "geometry": {"type": "Point", "coordinates": [-3.1334352, 51.7302249]}, "properties": {"Postcode": "NP13 1AG", "ULEZ": "Mitre Street Car Park"}}, {"type": "Feature", "geometry": {"type": "Point", "coordinates": [-2.947635, 55.909511]}, "properties": {"Postcode": "EH35 5JS", "ULEZ": "Moffat Road, East Lothian"}}, {"type": "Feature", "geometry": {"type": "Point", "coordinates": [-1.5993466, 52.4098327]}, "properties": {"Postcode": "CV4 9AL", "ULEZ": "Mohawk Bend"}}, {"type": "Feature", "geometry": {"type": "Point", "coordinates": [-0.7900987, 51.2087374]}, "properties": {"Postcode": "GU9 8NA", "ULEZ": "Morely Road"}}, {"type": "Feature", "geometry": {"type": "Point", "coordinates": [-1.3983764, 54.9200183]}, "properties": {"Postcode": "SR5 2HR", "ULEZ": "Morgan Street Car Park"}}, {"type": "Feature", "geometry": {"type": "Point", "coordinates": [-0.1751715, 51.4526883]}, "properties": {"Postcode": "SW18 3SD", "ULEZ": "Morwille House, Fitzhugh Estate"}}, {"type": "Feature", "geometry": {"type": "Point", "coordinates": [1.083612, 51.07068]}, "properties": {"Postcode": "CT21 5AL", "ULEZ": "Mount Street Car Park"}}, {"type": "Feature", "geometry": {"type": "Point", "coordinates": [0.0110818, 50.869474]}, "properties": {"Postcode": "BN7 2UJ", "ULEZ": "Mountfield Road Car Park"}}, {"type": "Feature", "geometry": {"type": "Point", "coordinates": [-1.5677078, 52.4254096]}, "properties": {"Postcode": "CV5 9GF", "ULEZ": "Neale Avenue, Coventry"}}, {"type": "Feature", "geometry": {"type": "Point", "coordinates": [-3.669769, 51.6101676]}, "properties": {"Postcode": "CF34 9PW", "ULEZ": "Neath Road Car Park, Bridgend"}}, {"type": "Feature", "geometry": {"type": "Point", "coordinates": [-3.270785, 51.3910339]}, "properties": {"Postcode": "CF62 5AH", "ULEZ": "Nell\u00e2\u20ac\u2122s Point Car Park"}}, {"type": "Feature", "geometry": {"type": "Point", "coordinates": [-0.5734813, 51.242649]}, "properties": {"Postcode": "GU1 4PA", "ULEZ": "Nettles Terrace"}}, {"type": "Feature", "geometry": {"type": "Point", "coordinates": [1.3398797, 51.2740625]}, "properties": {"Postcode": "CT13 9AB", "ULEZ": "New Street"}}, {"type": "Feature", "geometry": {"type": "Point", "coordinates": [-1.1644918, 52.2567546]}, "properties": {"Postcode": "NN11 4AB", "ULEZ": "Newlands Car Park, Sheaf Street"}}, {"type": "Feature", "geometry": {"type": "Point", "coordinates": [0.2668311, 52.4018863]}, "properties": {"Postcode": "CB7 4PQ", "ULEZ": "Newnham Street Car Park"}}, {"type": "Feature", "geometry": {"type": "Point", "coordinates": [-3.012681, 51.570924]}, "properties": {"Postcode": "NP20 3XT", "ULEZ": "Newport City Council Maesglas Community Centre"}}, {"type": "Feature", "geometry": {"type": "Point", "coordinates": [-2.9490727, 51.5821708]}, "properties": {"Postcode": "NP19 4NA", "ULEZ": "Newport East Community Centre"}}, {"type": "Feature", "geometry": {"type": "Point", "coordinates": [-2.9859758, 51.6030144]}, "properties": {"Postcode": "NP19 7HF", "ULEZ": "Newport Indoor Bowls Centre Carpark"}}, {"type": "Feature", "geometry": {"type": "Point", "coordinates": [-1.4908667, 52.4146758]}, "properties": {"Postcode": "CV1 5BL", "ULEZ": "Nicholls Street"}}, {"type": "Feature", "geometry": {"type": "Point", "coordinates": [-1.4907215, 52.4148073]}, "properties": {"Postcode": "CV1 5BL", "ULEZ": "Nicholls Street 2"}}, {"type": "Feature", "geometry": {"type": "Point", "coordinates": [-4.1358319, 50.3778015]}, "properties": {"Postcode": "PL4 8ET", "ULEZ": "North Hill Car Park"}}, {"type": "Feature", "geometry": {"type": "Point", "coordinates": [-3.188036, 51.490523]}, "properties": {"Postcode": "CF10 3DY", "ULEZ": "North Road Car Park"}}, {"type": "Feature", "geometry": {"type": "Point", "coordinates": [-0.3226112, 51.0651082]}, "properties": {"Postcode": "RH12 9SX", "ULEZ": "North Street Car Park"}}, {"type": "Feature", "geometry": {"type": "Point", "coordinates": [-0.401882, 54.284337]}, "properties": {"Postcode": "YO11 1DE", "ULEZ": "North Street Car Park"}}, {"type": "Feature", "geometry": {"type": "Point", "coordinates": [-0.398892, 54.285782]}, "properties": {"Postcode": "YO11 1HU", "ULEZ": "North Terrace Car Park"}}, {"type": "Feature", "geometry": {"type": "Point", "coordinates": [-1.501997, 52.43102]}, "properties": {"Postcode": "CV6 5NJ", "ULEZ": "Northey Road"}}, {"type": "Feature", "geometry": {"type": "Point", "coordinates": [-1.524266, 52.411123]}, "properties": {"Postcode": "CV1 3AQ", "ULEZ": "Northumberland Road"}}, {"type": "Feature", "geometry": {"type": "Point", "coordinates": [-0.0143506, 51.1296859]}, "properties": {"Postcode": "RH19 3JY", "ULEZ": "Norton House Car Park"}}, {"type": "Feature", "geometry": {"type": "Point", "coordinates": [-3.0566343, 52.86222]}, "properties": {"Postcode": "SY11 1LN", "ULEZ": "Oak Street Car Park"}}, {"type": "Feature", "geometry": {"type": "Point", "coordinates": [-0.1334278, 51.470232]}, "properties": {"Postcode": "SW8 2QL", "ULEZ": "Oakland House"}}, {"type": "Feature", "geometry": {"type": "Point", "coordinates": [-0.1394405, 51.4504825]}, "properties": {"Postcode": "SW4 8NJ", "ULEZ": "Oaklands Estate"}}, {"type": "Feature", "geometry": {"type": "Point", "coordinates": [-0.4583771, 52.1436149]}, "properties": {"Postcode": "MK40 3AG", "ULEZ": "Oaklands Road"}}, {"type": "Feature", "geometry": {"type": "Point", "coordinates": [-1.3662853, 54.8852813]}, "properties": {"Postcode": "SR2 9QR", "ULEZ": "Ocean Road, Wearside"}}, {"type": "Feature", "geometry": {"type": "Point", "coordinates": [-1.534237, 53.992605]}, "properties": {"Postcode": "HG1 5LB", "ULEZ": "Odeon Car Park, Harrogate"}}, {"type": "Feature", "geometry": {"type": "Point", "coordinates": [-2.7900034, 56.337346]}, "properties": {"Postcode": "KY16 9LB", "ULEZ": "Old Burgh School"}}, {"type": "Feature", "geometry": {"type": "Point", "coordinates": [-1.544762, 52.40966]}, "properties": {"Postcode": "CV5 8FW", "ULEZ": "Oldfield Road 1"}}, {"type": "Feature", "geometry": {"type": "Point", "coordinates": [-1.4605888, 52.4193845]}, "properties": {"Postcode": "CV2 3DB", "ULEZ": "Olive Avenue 1"}}, {"type": "Feature", "geometry": {"type": "Point", "coordinates": [-1.459815, 52.418534]}, "properties": {"Postcode": "CV2 3DE", "ULEZ": "Olive Avenue 2"}}, {"type": "Feature", "geometry": {"type": "Point", "coordinates": [-1.493254, 52.4229277]}, "properties": {"Postcode": "CV6 5FB", "ULEZ": "Oliver Street"}}, {"type": "Feature", "geometry": {"type": "Point", "coordinates": [-0.5699118, 51.241716]}, "properties": {"Postcode": "GU1 4JJ", "ULEZ": "Onslow Road"}}, {"type": "Feature", "geometry": {"type": "Point", "coordinates": [-3.3813137, 51.7382789]}, "properties": {"Postcode": "CF48 1DL", "ULEZ": "Orbit Car Park, Merthyr"}}, {"type": "Feature", "geometry": {"type": "Point", "coordinates": [-0.1397497, 50.9231521]}, "properties": {"Postcode": "BN6 8QA", "ULEZ": "Orion Car Park"}}, {"type": "Feature", "geometry": {"type": "Point", "coordinates": [-1.451411, 52.3969998]}, "properties": {"Postcode": "CV3 2GR", "ULEZ": "Oxendon Way"}}, {"type": "Feature", "geometry": {"type": "Point", "coordinates": [-1.4514389, 52.3970586]}, "properties": {"Postcode": "CV3 2GR", "ULEZ": "Oxendon Way 2"}}, {"type": "Feature", "geometry": {"type": "Point", "coordinates": [-1.36536, 51.690895]}, "properties": {"Postcode": "OX13 5QJ", "ULEZ": "Oxford Pharmagenesis"}}, {"type": "Feature", "geometry": {"type": "Point", "coordinates": [-3.5824829, 51.607596]}, "properties": {"Postcode": "CF32 8DE", "ULEZ": "Oxford Street, Garw Valley"}}, {"type": "Feature", "geometry": {"type": "Point", "coordinates": [-1.534946, 52.3970956]}, "properties": {"Postcode": "CV5 6AA", "ULEZ": "Palmerston Road"}}, {"type": "Feature", "geometry": {"type": "Point", "coordinates": [-2.0013645, 55.7713129]}, "properties": {"Postcode": "TD15 1DF", "ULEZ": "Parade Car Park"}}, {"type": "Feature", "geometry": {"type": "Point", "coordinates": [-0.2156862, 51.122265]}, "properties": {"Postcode": "RH11 0ER", "ULEZ": "Parham Road, Ifield"}}, {"type": "Feature", "geometry": {"type": "Point", "coordinates": [1.3096763, 51.1289495]}, "properties": {"Postcode": "CT16 1DJ", "ULEZ": "Park Place"}}, {"type": "Feature", "geometry": {"type": "Point", "coordinates": [-0.4731571, 52.1430193]}, "properties": {"Postcode": "MK41 7SB", "ULEZ": "Park Road West"}}, {"type": "Feature", "geometry": {"type": "Point", "coordinates": [-4.2797897, 55.8686559]}, "properties": {"Postcode": "G3 6BG", "ULEZ": "Park Street South & Park Circus"}}, {"type": "Feature", "geometry": {"type": "Point", "coordinates": [-1.5354517, 53.9942516]}, "properties": {"Postcode": "HG1 5LQ", "ULEZ": "Park View Car Park, Harrogate"}}, {"type": "Feature", "geometry": {"type": "Point", "coordinates": [-2.4626348, 54.9694335]}, "properties": {"Postcode": "NE49 0AX", "ULEZ": "Park View Car Park, West Gate"}}, {"type": "Feature", "geometry": {"type": "Point", "coordinates": [-4.1743252, 50.3878709]}, "properties": {"Postcode": "PL2 1LN", "ULEZ": "Parkside, Keyham"}}, {"type": "Feature", "geometry": {"type": "Point", "coordinates": [-1.4900483, 52.4416674]}, "properties": {"Postcode": "CV6 7AL", "ULEZ": "Parkstone Road"}}, {"type": "Feature", "geometry": {"type": "Point", "coordinates": [-1.4763397, 52.4410579]}, "properties": {"Postcode": "CV6 7DH", "ULEZ": "Pauline Avenue"}}, {"type": "Feature", "geometry": {"type": "Point", "coordinates": [-1.4768281, 52.4408268]}, "properties": {"Postcode": "CV6 7DA", "ULEZ": "Pearson Avenue"}}, {"type": "Feature", "geometry": {"type": "Point", "coordinates": [-0.1166321, 51.4890301]}, "properties": {"Postcode": "SE11 5LX", "ULEZ": "Pellar House, Orsett Street"}}, {"type": "Feature", "geometry": {"type": "Point", "coordinates": [-3.5019542, 51.5247627]}, "properties": {"Postcode": "CF35 6YT", "ULEZ": "Pencoed Railway Station Park & Ride, Bridgend"}}, {"type": "Feature", "geometry": {"type": "Point", "coordinates": [-3.2299968, 51.6698509]}, "properties": {"Postcode": "NP12 3XL", "ULEZ": "Pengam Railway Station Car Park, Caerphilly"}}, {"type": "Feature", "geometry": {"type": "Point", "coordinates": [-0.085476, 51.5096098]}, "properties": {"Postcode": "EC3R 8NB", "ULEZ": "Peninsular House"}}, {"type": "Feature", "geometry": {"type": "Point", "coordinates": [-3.2222882, 51.5144464]}, "properties": {"Postcode": "CF14 2AA", "ULEZ": "Penlline Road Car Park, Cardiff"}}, {"type": "Feature", "geometry": {"type": "Point", "coordinates": [-3.3038723, 51.6638634]}, "properties": {"Postcode": "CF46 5ET", "ULEZ": "Perrott Street Car Park, Merthyr"}}, {"type": "Feature", "geometry": {"type": "Point", "coordinates": [-0.7092688, 51.5048935]}, "properties": {"Postcode": "SL6 2ES", "ULEZ": "Pete's Place"}}, {"type": "Feature", "geometry": {"type": "Point", "coordinates": [-1.5813806, 52.4029891]}, "properties": {"Postcode": "CV4 9SA", "ULEZ": "Pinnock Place"}}, {"type": "Feature", "geometry": {"type": "Point", "coordinates": [-1.5813806, 52.4029891]}, "properties": {"Postcode": "CV4 9SA", "ULEZ": "Pinnock Place 2"}}, {"type": "Feature", "geometry": {"type": "Point", "coordinates": [-1.5813806, 52.4029891]}, "properties": {"Postcode": "CV4 9SA", "ULEZ": "Pinnock Place 3"}}, {"type": "Feature", "geometry": {"type": "Point", "coordinates": [1.176343, 51.077498]}, "properties": {"Postcode": "CT20 2DN", "ULEZ": "Pleydell Gardens Car Park"}}, {"type": "Feature", "geometry": {"type": "Point", "coordinates": [-3.3765638, 51.7498766]}, "properties": {"Postcode": "CF47 8UN", "ULEZ": "Pontmoralis Car Park, Merthyr"}}, {"type": "Feature", "geometry": {"type": "Point", "coordinates": [-3.0245686, 51.6615885]}, "properties": {"Postcode": "NP44 1EF", "ULEZ": "Pontnewydd Neighbourhood Centre, Cwmbran"}}, {"type": "Feature", "geometry": {"type": "Point", "coordinates": [-3.035083, 51.699361]}, "properties": {"Postcode": "NP4 8AT", "ULEZ": "Pontypool Active Leisure Centre"}}, {"type": "Feature", "geometry": {"type": "Point", "coordinates": [-2.0970041, 53.2979689]}, "properties": {"Postcode": "SK10 5PW", "ULEZ": "Pool Bank Car-Park"}}, {"type": "Feature", "geometry": {"type": "Point", "coordinates": [-1.5274636, 52.4216966]}, "properties": {"Postcode": "CV76 1JS", "ULEZ": "Poole Road"}}, {"type": "Feature", "geometry": {"type": "Point", "coordinates": [-3.4097674, 51.6141564]}, "properties": {"Postcode": "CF39 9SE", "ULEZ": "Porth Park & Ride 1"}}, {"type": "Feature", "geometry": {"type": "Point", "coordinates": [-3.4098261, 51.6141258]}, "properties": {"Postcode": "CF39 9SE", "ULEZ": "Porth Park and Ride 2"}}, {"type": "Feature", "geometry": {"type": "Point", "coordinates": [-3.4040855, 51.6100854]}, "properties": {"Postcode": "CF39 9PN", "ULEZ": "Porth Plaza Car Park"}}, {"type": "Feature", "geometry": {"type": "Point", "coordinates": [-3.3152047, 51.3939786]}, "properties": {"Postcode": "CF62 3BY", "ULEZ": "Porthkerry Park Car Park, Vale Of Glamorgan"}}, {"type": "Feature", "geometry": {"type": "Point", "coordinates": [-1.5055145, 52.3825734]}, "properties": {"Postcode": "CV3 5AG", "ULEZ": "Postbridge Road"}}, {"type": "Feature", "geometry": {"type": "Point", "coordinates": [-0.1393491, 51.4487599]}, "properties": {"Postcode": "SW4 8PF", "ULEZ": "Poynders Gardens"}}, {"type": "Feature", "geometry": {"type": "Point", "coordinates": [-1.4933287, 52.4286197]}, "properties": {"Postcode": "CV6 5BW", "ULEZ": "Princess Street"}}, {"type": "Feature", "geometry": {"type": "Point", "coordinates": [-1.4936538, 52.4269834]}, "properties": {"Postcode": "CV6 5BT", "ULEZ": "Princess Street 2"}}, {"type": "Feature", "geometry": {"type": "Point", "coordinates": [-0.3049806, 50.88512]}, "properties": {"Postcode": "BN44 3HU", "ULEZ": "Priory Field"}}, {"type": "Feature", "geometry": {"type": "Point", "coordinates": [-0.0977303, 50.995113]}, "properties": {"Postcode": "RH16 3NS", "ULEZ": "Priory Way"}}, {"type": "Feature", "geometry": {"type": "Point", "coordinates": [-0.141881, 51.3861017]}, "properties": {"Postcode": "CR0 4TE", "ULEZ": "Prologis Beddington Lane"}}, {"type": "Feature", "geometry": {"type": "Point", "coordinates": [-0.2902235, 51.3722164]}, "properties": {"Postcode": "KT6 7LD", "ULEZ": "Prologis Chessington"}}, {"type": "Feature", "geometry": {"type": "Point", "coordinates": [-3.062211, 55.9460909]}, "properties": {"Postcode": "EH21 6JU", "ULEZ": "Promenade, Musselburgh"}}, {"type": "Feature", "geometry": {"type": "Point", "coordinates": [-4.2368776, 55.8292202]}, "properties": {"Postcode": "G42 0HS", "ULEZ": "Prospecthill Circus"}}, {"type": "Feature", "geometry": {"type": "Point", "coordinates": [-2.80878, 56.34036]}, "properties": {"Postcode": "KY16 9ST", "ULEZ": "Purdie, St Andrews"}}, {"type": "Feature", "geometry": {"type": "Point", "coordinates": [0.0187113, 52.2555667]}, "properties": {"Postcode": "CB4 0FZ", "ULEZ": "Q-Arc Building, Cambridge Science Park"}}, {"type": "Feature", "geometry": {"type": "Point", "coordinates": [-3.206455, 51.778297]}, "properties": {"Postcode": "NP23 8UW", "ULEZ": "Queen Street Car Park"}}, {"type": "Feature", "geometry": {"type": "Point", "coordinates": [-0.0105166, 51.1242754]}, "properties": {"Postcode": "RH19 1BG", "ULEZ": "Queensway Car Park"}}, {"type": "Feature", "geometry": {"type": "Point", "coordinates": [-1.8133692, 51.5500432]}, "properties": {"Postcode": "SN1 7EU", "ULEZ": "Quince Avenue (Plot 152)"}}, {"type": "Feature", "geometry": {"type": "Point", "coordinates": [-1.5341424, 52.3976989]}, "properties": {"Postcode": "CV5 6FF", "ULEZ": "Radcliffe Road"}}, {"type": "Feature", "geometry": {"type": "Point", "coordinates": [-1.4906011, 52.4145165]}, "properties": {"Postcode": "CV2 4GQ", "ULEZ": "Ranby Road 1"}}, {"type": "Feature", "geometry": {"type": "Point", "coordinates": [-1.488893, 52.4144995]}, "properties": {"Postcode": "CV2 4GG", "ULEZ": "Ranby Road 2"}}, {"type": "Feature", "geometry": {"type": "Point", "coordinates": [-1.4983361, 52.4333559]}, "properties": {"Postcode": "CV6 5LG", "ULEZ": "Ransom Road"}}, {"type": "Feature", "geometry": {"type": "Point", "coordinates": [0.365699, 51.440911]}, "properties": {"Postcode": "DA11 0HP", "ULEZ": "Rathmore Road"}}, {"type": "Feature", "geometry": {"type": "Point", "coordinates": [-2.8583719, 57.1288145]}, "properties": {"Postcode": "AB34 4UA", "ULEZ": "Recreation Grounds Car Park"}}, {"type": "Feature", "geometry": {"type": "Point", "coordinates": [-0.575214, 51.244625]}, "properties": {"Postcode": "GU1 1HE", "ULEZ": "Recreation Road"}}, {"type": "Feature", "geometry": {"type": "Point", "coordinates": [0.3014491, 50.7754879]}, "properties": {"Postcode": "BN22 7AQ", "ULEZ": "Redoubt Car Park"}}, {"type": "Feature", "geometry": {"type": "Point", "coordinates": [-0.146744, 51.538338]}, "properties": {"Postcode": "NW1 7EA", "ULEZ": "Regents Park Terrace, Oval Road"}}, {"type": "Feature", "geometry": {"type": "Point", "coordinates": [-0.0956209, 51.3755254]}, "properties": {"Postcode": "CR0 2NA", "ULEZ": "Renaissance Building, Croydon"}}, {"type": "Feature", "geometry": {"type": "Point", "coordinates": [-1.4759109, 52.442636]}, "properties": {"Postcode": "CV6 7BS", "ULEZ": "Repton Drive"}}, {"type": "Feature", "geometry": {"type": "Point", "coordinates": [-3.4300881, 51.6520046]}, "properties": {"Postcode": "CF43 3HR", "ULEZ": "Rhondda Fach Leisure Centre (Leisure for Life), Ferndale"}}, {"type": "Feature", "geometry": {"type": "Point", "coordinates": [-3.4610993, 51.6430919]}, "properties": {"Postcode": "CF41 7SY", "ULEZ": "Rhondda Sports Centre"}}, {"type": "Feature", "geometry": {"type": "Point", "coordinates": [-3.3486399, 51.3866936]}, "properties": {"Postcode": "CF62 3HB", "ULEZ": "Rhoose Interchange Park and Ride"}}, {"type": "Feature", "geometry": {"type": "Point", "coordinates": [-3.2839508, 51.7592629]}, "properties": {"Postcode": "NP22 5NZ", "ULEZ": "Rhymney Library Car Park"}}, {"type": "Feature", "geometry": {"type": "Point", "coordinates": [-4.2442588, 55.8614674]}, "properties": {"Postcode": "G1 1XQ", "ULEZ": "Richmond Street"}}, {"type": "Feature", "geometry": {"type": "Point", "coordinates": [-4.1598007, 50.4145092]}, "properties": {"Postcode": "PL5 3RF", "ULEZ": "Ringmore Way"}}, {"type": "Feature", "geometry": {"type": "Point", "coordinates": [0.271199, 51.193119]}, "properties": {"Postcode": "TN9 1EP", "ULEZ": "River Lawn Road"}}, {"type": "Feature", "geometry": {"type": "Point", "coordinates": [-0.4985234, 50.95667]}, "properties": {"Postcode": "RH20 2BU", "ULEZ": "Rivermead, Pulborough"}}, {"type": "Feature", "geometry": {"type": "Point", "coordinates": [-1.3926941, 54.907585]}, "properties": {"Postcode": "SR4 6DW", "ULEZ": "Riverside Multi Storey Car Park 1"}}, {"type": "Feature", "geometry": {"type": "Point", "coordinates": [-1.3937803, 54.9097384]}, "properties": {"Postcode": "SR4 6DW", "ULEZ": "Riverside Multi Storey Car Park 2"}}, {"type": "Feature", "geometry": {"type": "Point", "coordinates": [-0.400508, 50.806369]}, "properties": {"Postcode": "BN11 5EH", "ULEZ": "Roberts Marine, West Parade"}}, {"type": "Feature", "geometry": {"type": "Point", "coordinates": [-1.5389501, 52.3969747]}, "properties": {"Postcode": "CV5 6AG", "ULEZ": "Rochester Road"}}, {"type": "Feature", "geometry": {"type": "Point", "coordinates": [-3.4468902, 51.7124765]}, "properties": {"Postcode": "CF44 7DN", "ULEZ": "Rock Grounds Car Park, Aberdare"}}, {"type": "Feature", "geometry": {"type": "Point", "coordinates": [-1.068478, 53.561694]}, "properties": {"Postcode": "DN3 1BY", "ULEZ": "Rokeby Gardens"}}, {"type": "Feature", "geometry": {"type": "Point", "coordinates": [-1.52, 52.448244]}, "properties": {"Postcode": "CV6 4GZ", "ULEZ": "Rookery Lane"}}, {"type": "Feature", "geometry": {"type": "Point", "coordinates": [-1.5644923, 52.404824]}, "properties": {"Postcode": "CV4 9FJ", "ULEZ": "Rothesay Aveenue"}}, {"type": "Feature", "geometry": {"type": "Point", "coordinates": [-2.724386, 53.371448]}, "properties": {"Postcode": "WA8 6HF", "ULEZ": "Routledge Street"}}, {"type": "Feature", "geometry": {"type": "Point", "coordinates": [-0.385523, 50.809872]}, "properties": {"Postcode": "BN11 3LL", "ULEZ": "Rowlands Road"}}, {"type": "Feature", "geometry": {"type": "Point", "coordinates": [-1.1747079, 52.374561]}, "properties": {"Postcode": "NN6 7FT", "ULEZ": "Royal Mail, Midlands Super Hub"}}, {"type": "Feature", "geometry": {"type": "Point", "coordinates": [0.1410177, 52.2360261]}, "properties": {"Postcode": "CB4 0WF", "ULEZ": "Royal Society of Chemistry"}}, {"type": "Feature", "geometry": {"type": "Point", "coordinates": [-1.5572169, 52.4107248]}, "properties": {"Postcode": "CV5 8LU", "ULEZ": "Rubens Close"}}, {"type": "Feature", "geometry": {"type": "Point", "coordinates": [-0.3289788, 51.069437]}, "properties": {"Postcode": "RH12 2NT", "ULEZ": "Rushams Road, North Heath"}}, {"type": "Feature", "geometry": {"type": "Point", "coordinates": [-0.4519909, 52.135582]}, "properties": {"Postcode": "MK40 3TF", "ULEZ": "Russell Avenue"}}, {"type": "Feature", "geometry": {"type": "Point", "coordinates": [-0.6985678, 51.527879]}, "properties": {"Postcode": "SL6 0BF", "ULEZ": "Rutland Close"}}, {"type": "Feature", "geometry": {"type": "Point", "coordinates": [-4.1048145, 50.4077667]}, "properties": {"Postcode": "PL6 8TR", "ULEZ": "Rydal Close"}}, {"type": "Feature", "geometry": {"type": "Point", "coordinates": [-0.789565, 54.1392784]}, "properties": {"Postcode": "YO17 7HH", "ULEZ": "Ryedale House"}}, {"type": "Feature", "geometry": {"type": "Point", "coordinates": [1.1733262, 51.0768743]}, "properties": {"Postcode": "CT20 2BY", "ULEZ": "Sandgate Road Car Park"}}, {"type": "Feature", "geometry": {"type": "Point", "coordinates": [-1.5135431, 52.4167653]}, "properties": {"Postcode": "CV1 4EX", "ULEZ": "Sandy Lane"}}, {"type": "Feature", "geometry": {"type": "Point", "coordinates": [-3.5899391, 51.5381234]}, "properties": {"Postcode": "CF32 9RL", "ULEZ": "Sarn Station Park & Ride, Bridgend"}}, {"type": "Feature", "geometry": {"type": "Point", "coordinates": [-1.8062031, 51.5463785]}, "properties": {"Postcode": "SN1 7NU", "ULEZ": "Semington Strand"}}, {"type": "Feature", "geometry": {"type": "Point", "coordinates": [-2.4126242, 52.5333371]}, "properties": {"Postcode": "WV15 6BP", "ULEZ": "Severn Street Car Park"}}, {"type": "Feature", "geometry": {"type": "Point", "coordinates": [-2.7781107, 51.5844854]}, "properties": {"Postcode": "NP26 3WF", "ULEZ": "Severn Tunnel Junction, Caldicot"}}, {"type": "Feature", "geometry": {"type": "Point", "coordinates": [-2.9937749, 51.5953775]}, "properties": {"Postcode": "NP20 5LD", "ULEZ": "Shaftesbury Community Centre"}}, {"type": "Feature", "geometry": {"type": "Point", "coordinates": [-1.5352296, 52.3974126]}, "properties": {"Postcode": "CV5 6AA", "ULEZ": "Shaftesbury Road"}}, {"type": "Feature", "geometry": {"type": "Point", "coordinates": [-3.0949119, 51.7753231]}, "properties": {"Postcode": "NP4 9RL", "ULEZ": "Shared Resource Centre, Torfaen"}}, {"type": "Feature", "geometry": {"type": "Point", "coordinates": [-0.1799434, 51.121066]}, "properties": {"Postcode": "RH10 8DQ", "ULEZ": "Shaws Road"}}, {"type": "Feature", "geometry": {"type": "Point", "coordinates": [1.180816, 51.0806532]}, "properties": {"Postcode": "CT20 1BP", "ULEZ": "Shellons Street Car Park"}}, {"type": "Feature", "geometry": {"type": "Point", "coordinates": [-2.2498374, 51.8655606]}, "properties": {"Postcode": "GL1 2JH", "ULEZ": "Shire Hall 2"}}, {"type": "Feature", "geometry": {"type": "Point", "coordinates": [-2.2498069, 51.8655509]}, "properties": {"Postcode": "GL1 2TG", "ULEZ": "Shire Hall Car Club"}}, {"type": "Feature", "geometry": {"type": "Point", "coordinates": [-0.7977578, 54.1430353]}, "properties": {"Postcode": "YO17 6BT", "ULEZ": "Showfield Lane Depot"}}, {"type": "Feature", "geometry": {"type": "Point", "coordinates": [-2.7726249, 52.6889728]}, "properties": {"Postcode": "SY3 9EL", "ULEZ": "Shropshire Council Longden Depot"}}, {"type": "Feature", "geometry": {"type": "Point", "coordinates": [-0.172503, 51.4715809]}, "properties": {"Postcode": "SW11 3JY", "ULEZ": "Shuttleworth Road Regan, Sphere Walk"}}, {"type": "Feature", "geometry": {"type": "Point", "coordinates": [-0.1740433, 51.4519997]}, "properties": {"Postcode": "SW18 3SF", "ULEZ": "Skipsea House, Fitzhugh Estate, Wandsworth"}}, {"type": "Feature", "geometry": {"type": "Point", "coordinates": [-3.17405, 51.799534]}, "properties": {"Postcode": "NP23 4ES", "ULEZ": "Somerset Street"}}, {"type": "Feature", "geometry": {"type": "Point", "coordinates": [-1.5416064, 52.417799]}, "properties": {"Postcode": "CV6 1FB", "ULEZ": "Southbank Road"}}, {"type": "Feature", "geometry": {"type": "Point", "coordinates": [-0.8098033, 52.0544858]}, "properties": {"Postcode": "MK12 5ED", "ULEZ": "Southern Way"}}, {"type": "Feature", "geometry": {"type": "Point", "coordinates": [0.2783721, 51.1927744]}, "properties": {"Postcode": "TN9 1RS", "ULEZ": "Sovereign Way North Car-Park"}}, {"type": "Feature", "geometry": {"type": "Point", "coordinates": [-1.5372287, 52.398272]}, "properties": {"Postcode": "CV5 6FP", "ULEZ": "St Andrews Road"}}, {"type": "Feature", "geometry": {"type": "Point", "coordinates": [-1.5143018, 52.4134782]}, "properties": {"Postcode": "CV1 4BX", "ULEZ": "St Columba's Close 1"}}, {"type": "Feature", "geometry": {"type": "Point", "coordinates": [-1.514161, 52.4140137]}, "properties": {"Postcode": "CV1 4BX", "ULEZ": "St Columba's Close 2"}}, {"type": "Feature", "geometry": {"type": "Point", "coordinates": [-1.5142845, 52.4139864]}, "properties": {"Postcode": "CV1 4BX", "ULEZ": "St Columba's Close 3"}}, {"type": "Feature", "geometry": {"type": "Point", "coordinates": [-1.4940363, 52.4292345]}, "properties": {"Postcode": "CV6 5BX", "ULEZ": "St Elizabeth's Road"}}, {"type": "Feature", "geometry": {"type": "Point", "coordinates": [-4.1202316, 50.3572409]}, "properties": {"Postcode": "PL6 8TR", "ULEZ": "St Johns Road Car Park"}}, {"type": "Feature", "geometry": {"type": "Point", "coordinates": [-0.6131792, 51.4763479]}, "properties": {"Postcode": "SL4 3DA", "ULEZ": "St Leonards Road"}}, {"type": "Feature", "geometry": {"type": "Point", "coordinates": [-0.5217607, 51.4290821]}, "properties": {"Postcode": "TW18 3HJ", "ULEZ": "St Paul's Road"}}, {"type": "Feature", "geometry": {"type": "Point", "coordinates": [-0.174461, 51.4525504]}, "properties": {"Postcode": "SW18 3SD", "ULEZ": "St Quentin House, Fitzhugh Estate, Wandsworth"}}, {"type": "Feature", "geometry": {"type": "Point", "coordinates": [-1.5630626, 52.4010204]}, "properties": {"Postcode": "CV4 9BX", "ULEZ": "Standard Avenue"}}, {"type": "Feature", "geometry": {"type": "Point", "coordinates": [-1.5338684, 52.3978474]}, "properties": {"Postcode": "CV5 6EL", "ULEZ": "Stanley Road"}}, {"type": "Feature", "geometry": {"type": "Point", "coordinates": [-3.1433368, 51.4848935]}, "properties": {"Postcode": "CF24 2SJ", "ULEZ": "Star Hub Car Park"}}, {"type": "Feature", "geometry": {"type": "Point", "coordinates": [-0.5641633, 51.402639]}, "properties": {"Postcode": "GU25 4AF", "ULEZ": "Station Parade"}}, {"type": "Feature", "geometry": {"type": "Point", "coordinates": [-0.1330739, 50.9541145]}, "properties": {"Postcode": "RH15 9AR", "ULEZ": "Station Road Car Park"}}, {"type": "Feature", "geometry": {"type": "Point", "coordinates": [1.092174, 51.127655]}, "properties": {"Postcode": "CT18 8HS", "ULEZ": "Station Road, The Sidings"}}, {"type": "Feature", "geometry": {"type": "Point", "coordinates": [-1.4993045, 52.4158009]}, "properties": {"Postcode": "CV1 5HX", "ULEZ": "Stockton Road"}}, {"type": "Feature", "geometry": {"type": "Point", "coordinates": [-0.5739833, 51.246219]}, "properties": {"Postcode": "GU1 1HD", "ULEZ": "Stocton Road"}}, {"type": "Feature", "geometry": {"type": "Point", "coordinates": [0.2606181, 51.4430524]}, "properties": {"Postcode": "DA9 9DS", "ULEZ": "Stone Pavilion, Hayes Road"}}, {"type": "Feature", "geometry": {"type": "Point", "coordinates": [-3.0643138, 55.9359308]}, "properties": {"Postcode": "EH21 6LY", "ULEZ": "Stoneybank Terrace"}}, {"type": "Feature", "geometry": {"type": "Point", "coordinates": [-0.454077, 50.918863]}, "properties": {"Postcode": "RH20 4DH", "ULEZ": "Storrington Library, Mill Stream Car Park, Pulborough"}}, {"type": "Feature", "geometry": {"type": "Point", "coordinates": [-1.4719457, 52.3851325]}, "properties": {"Postcode": "CV3 3AE", "ULEZ": "Stretton Avenue 1"}}, {"type": "Feature", "geometry": {"type": "Point", "coordinates": [-1.4708692, 52.384845]}, "properties": {"Postcode": "CV3 3AE", "ULEZ": "Stretton Avenue 2"}}, {"type": "Feature", "geometry": {"type": "Point", "coordinates": [-1.4695341, 52.3849304]}, "properties": {"Postcode": "CV3 3AE", "ULEZ": "Stretton Avenue 3"}}, {"type": "Feature", "geometry": {"type": "Point", "coordinates": [-4.1569972, 50.3779613]}, "properties": {"Postcode": "PL1 5LQ", "ULEZ": "Stuart Road"}}, {"type": "Feature", "geometry": {"type": "Point", "coordinates": [-1.5700081, 52.4165915]}, "properties": {"Postcode": "CV5 7NJ", "ULEZ": "Sutherland Avenue"}}, {"type": "Feature", "geometry": {"type": "Point", "coordinates": [-1.5698613, 52.4162682]}, "properties": {"Postcode": "CV5 7NJ", "ULEZ": "Sutherland Avenue 1"}}, {"type": "Feature", "geometry": {"type": "Point", "coordinates": [-1.5884526, 52.4173545]}, "properties": {"Postcode": "CV5 7EX", "ULEZ": "Sutton Avenue"}}, {"type": "Feature", "geometry": {"type": "Point", "coordinates": [0.5931072, 51.217854]}, "properties": {"Postcode": "ME17 3HS", "ULEZ": "Sutton Valence Village Hall, North Street"}}, {"type": "Feature", "geometry": {"type": "Point", "coordinates": [0.191023, 51.394553]}, "properties": {"Postcode": "BR8 8DR", "ULEZ": "Swanley Olympic Venue Car Park"}}, {"type": "Feature", "geometry": {"type": "Point", "coordinates": [0.3005589, 51.4470639]}, "properties": {"Postcode": "DA10 0LP", "ULEZ": "Swanscombe Leisure Centre"}}, {"type": "Feature", "geometry": {"type": "Point", "coordinates": [-1.4439101, 52.3966256]}, "properties": {"Postcode": "CV3 2JZ", "ULEZ": "Swindale Croft 1"}}, {"type": "Feature", "geometry": {"type": "Point", "coordinates": [-1.4436159, 52.3968879]}, "properties": {"Postcode": "CV3 2JW", "ULEZ": "Swindale Croft 2"}}, {"type": "Feature", "geometry": {"type": "Point", "coordinates": [-1.4730106, 52.4417553]}, "properties": {"Postcode": "CV2 1LJ", "ULEZ": "Sycamore Road 1"}}, {"type": "Feature", "geometry": {"type": "Point", "coordinates": [-1.4729194, 52.4412624]}, "properties": {"Postcode": "CV2 1LJ", "ULEZ": "Sycamore Road 2"}}, {"type": "Feature", "geometry": {"type": "Point", "coordinates": [-3.389699, 51.5342384]}, "properties": {"Postcode": "CF72 8HS", "ULEZ": "Talbot Green Community Centre"}}, {"type": "Feature", "geometry": {"type": "Point", "coordinates": [-0.6826116, 52.0496088]}, "properties": {"Postcode": "MK10 7GN", "ULEZ": "Tariq home"}}, {"type": "Feature", "geometry": {"type": "Point", "coordinates": [-0.1643952, 50.830006]}, "properties": {"Postcode": "BN3 3AN", "ULEZ": "Tate Residences 1"}}, {"type": "Feature", "geometry": {"type": "Point", "coordinates": [0.16473, 50.82992]}, "properties": {"Postcode": "BN3 3AN", "ULEZ": "Tate Residences 2"}}, {"type": "Feature", "geometry": {"type": "Point", "coordinates": [-0.763415, 51.999394]}, "properties": {"Postcode": "MK3 7PU", "ULEZ": "Tees Way, Bletchley"}}, {"type": "Feature", "geometry": {"type": "Point", "coordinates": [-1.4914332, 52.4366531]}, "properties": {"Postcode": "CV6 7AD", "ULEZ": "Tennerife Road"}}, {"type": "Feature", "geometry": {"type": "Point", "coordinates": [-4.2740481, 55.838057]}, "properties": {"Postcode": "G41 5RA", "ULEZ": "Terregles Avenue"}}, {"type": "Feature", "geometry": {"type": "Point", "coordinates": [-1.4910892, 52.4126031]}, "properties": {"Postcode": "CV2 4GY", "ULEZ": "Thackhall Street"}}, {"type": "Feature", "geometry": {"type": "Point", "coordinates": [1.3623422, 51.331012]}, "properties": {"Postcode": "CT12 5LQ", "ULEZ": "Thanet Parkway Station"}}, {"type": "Feature", "geometry": {"type": "Point", "coordinates": [0.3592528, 51.3308789]}, "properties": {"Postcode": "DA13 0RL", "ULEZ": "The Bay"}}, {"type": "Feature", "geometry": {"type": "Point", "coordinates": [-3.2340186, 51.5802064]}, "properties": {"Postcode": "CF83 8ND", "ULEZ": "The Crescent Car Park, Machen"}}, {"type": "Feature", "geometry": {"type": "Point", "coordinates": [-2.7207094, 56.0576264]}, "properties": {"Postcode": "EH39 4NU", "ULEZ": "The Glebe, St Andrew Street"}}, {"type": "Feature", "geometry": {"type": "Point", "coordinates": [0.3088701, 51.4474557]}, "properties": {"Postcode": "DA10 0GA", "ULEZ": "The Grove Car Park"}}, {"type": "Feature", "geometry": {"type": "Point", "coordinates": [0.3354902, 51.4434399]}, "properties": {"Postcode": "DA11 9EY", "ULEZ": "The Hill, Northfleet"}}, {"type": "Feature", "geometry": {"type": "Point", "coordinates": [-0.2437912, 51.5810926]}, "properties": {"Postcode": "NW9 6FZ", "ULEZ": "The Hyde, Hendon"}}, {"type": "Feature", "geometry": {"type": "Point", "coordinates": [-1.5014488, 52.3960489]}, "properties": {"Postcode": "CV3 5GJ", "ULEZ": "The Mount 1"}}, {"type": "Feature", "geometry": {"type": "Point", "coordinates": [-1.4994682, 52.3938783]}, "properties": {"Postcode": "CV3 5GJ", "ULEZ": "The Mount 2"}}, {"type": "Feature", "geometry": {"type": "Point", "coordinates": [1.0853502, 51.0708784]}, "properties": {"Postcode": "CT21 5NN", "ULEZ": "The Paddocks Car Park, Prospect Road"}}, {"type": "Feature", "geometry": {"type": "Point", "coordinates": [1.3438354, 51.2752095]}, "properties": {"Postcode": "CT13 9EW", "ULEZ": "The Quay Car Park"}}, {"type": "Feature", "geometry": {"type": "Point", "coordinates": [-3.0701261, 51.5944287]}, "properties": {"Postcode": "NP10 9LZ", "ULEZ": "The Rivermead Centre"}}, {"type": "Feature", "geometry": {"type": "Point", "coordinates": [-4.172736, 50.3698208]}, "properties": {"Postcode": "PL1 4HT", "ULEZ": "Theatre Ope, Devonport"}}, {"type": "Feature", "geometry": {"type": "Point", "coordinates": [-2.950196, 55.971677]}, "properties": {"Postcode": "EH32 0AT", "ULEZ": "Thomson Crescent, East Lothian"}}, {"type": "Feature", "geometry": {"type": "Point", "coordinates": [-1.5285143, 52.4218199]}, "properties": {"Postcode": "CV6 1JX", "ULEZ": "Three Spires Avenue"}}, {"type": "Feature", "geometry": {"type": "Point", "coordinates": [-1.5649547, 52.4034543]}, "properties": {"Postcode": "CV4 9DS", "ULEZ": "Tile Hill Lane"}}, {"type": "Feature", "geometry": {"type": "Point", "coordinates": [-3.1323835, 51.7427688]}, "properties": {"Postcode": "NP13 1JJ", "ULEZ": "Tillery Road Car Park, Abertillery"}}, {"type": "Feature", "geometry": {"type": "Point", "coordinates": [-1.6830315, 53.7954732]}, "properties": {"Postcode": "LS28 8DL", "ULEZ": "Tom A (Private - Residential)"}}, {"type": "Feature", "geometry": {"type": "Point", "coordinates": [0.3923094, 51.2743241]}, "properties": {"Postcode": "ME19 4LZ", "ULEZ": "Tonbridge & Malling Borough Council, Gibson Building"}}, {"type": "Feature", "geometry": {"type": "Point", "coordinates": [-3.5822827, 51.5092493]}, "properties": {"Postcode": "CF31 4JE", "ULEZ": "Tondu Road Car Park, Bridgend"}}, {"type": "Feature", "geometry": {"type": "Point", "coordinates": [-3.45662, 51.62281]}, "properties": {"Postcode": "CF40 1BW", "ULEZ": "Tonypandy Upper Car Park"}}, {"type": "Feature", "geometry": {"type": "Point", "coordinates": [-0.9641964, 52.2245605]}, "properties": {"Postcode": "NN4 9BX", "ULEZ": "Toolstation, Pineham"}}, {"type": "Feature", "geometry": {"type": "Point", "coordinates": [-3.0195223, 51.6898864]}, "properties": {"Postcode": "NP4 0LS", "ULEZ": "Torfaen Business Centre Car Park, Pontypool"}}, {"type": "Feature", "geometry": {"type": "Point", "coordinates": [-1.5624901, 52.3990173]}, "properties": {"Postcode": "CV4 9AS", "ULEZ": "Torrington Road"}}, {"type": "Feature", "geometry": {"type": "Point", "coordinates": [-0.9336216, 54.2702862]}, "properties": {"Postcode": "YO62 6AU", "ULEZ": "Town Farm Close Car Park"}}, {"type": "Feature", "geometry": {"type": "Point", "coordinates": [1.1857427, 51.0808692]}, "properties": {"Postcode": "CT20 1NF", "ULEZ": "Tram Road Car Park, Harbour Way"}}, {"type": "Feature", "geometry": {"type": "Point", "coordinates": [-3.2979713, 51.6680658]}, "properties": {"Postcode": "CF46 6AB", "ULEZ": "Trelewis Car Park, Bontnewydd Terrace"}}, {"type": "Feature", "geometry": {"type": "Point", "coordinates": [-3.5757829, 51.5088314]}, "properties": {"Postcode": "CF31 1ST", "ULEZ": "Tremains Road Car Park, Bridgend"}}, {"type": "Feature", "geometry": {"type": "Point", "coordinates": [-0.176869, 50.934225]}, "properties": {"Postcode": "BN6 9SJ", "ULEZ": "Trinity Road Car Park"}}, {"type": "Feature", "geometry": {"type": "Point", "coordinates": [-1.5765216, 52.4124799]}, "properties": {"Postcode": "CV5 7BJ", "ULEZ": "Trossachs Road"}}, {"type": "Feature", "geometry": {"type": "Point", "coordinates": [-0.1137315, 51.4493985]}, "properties": {"Postcode": "SW2 2HD", "ULEZ": "Tulse Hill Estate, Greenleaf close"}}, {"type": "Feature", "geometry": {"type": "Point", "coordinates": [1.383237, 51.3919141]}, "properties": {"Postcode": "CT9 1JD", "ULEZ": "Turner Rendezvous Car Park"}}, {"type": "Feature", "geometry": {"type": "Point", "coordinates": [1.093739, 51.067769]}, "properties": {"Postcode": "CT21 6AJ", "ULEZ": "Twiss Fort Car Park, Princes Parade"}}, {"type": "Feature", "geometry": {"type": "Point", "coordinates": [-1.5839143, 52.415943]}, "properties": {"Postcode": "CV5 7GH", "ULEZ": "Unicorn Avenue 1"}}, {"type": "Feature", "geometry": {"type": "Point", "coordinates": [-1.5854007, 52.4157814]}, "properties": {"Postcode": "CV5 7GR", "ULEZ": "Unicorn Avenue 2"}}, {"type": "Feature", "geometry": {"type": "Point", "coordinates": [-1.5809016, 52.4159807]}, "properties": {"Postcode": "CV5 7GJ", "ULEZ": "Unicorn Avenue 3"}}, {"type": "Feature", "geometry": {"type": "Point", "coordinates": [-1.5818245, 52.4159984]}, "properties": {"Postcode": "CV5 7GH", "ULEZ": "Unicorn Avenue 4"}}, {"type": "Feature", "geometry": {"type": "Point", "coordinates": [1.4016999, 51.2266268]}, "properties": {"Postcode": "CT14 6BE", "ULEZ": "Union Road Car Park"}}, {"type": "Feature", "geometry": {"type": "Point", "coordinates": [-2.8143268, 56.3388371]}, "properties": {"Postcode": "KY16 9BY", "ULEZ": "University Park, St. Andrews"}}, {"type": "Feature", "geometry": {"type": "Point", "coordinates": [0.2731799, 51.1975185]}, "properties": {"Postcode": "TN9 1HR", "ULEZ": "Upper Castle Field Car Park"}}, {"type": "Feature", "geometry": {"type": "Point", "coordinates": [1.182179, 51.080975]}, "properties": {"Postcode": "CT20 1EZ", "ULEZ": "Upper Payers Car Park"}}, {"type": "Feature", "geometry": {"type": "Point", "coordinates": [-0.0061299, 51.125704]}, "properties": {"Postcode": "RH19 3BP", "ULEZ": "Vicarage Car Park"}}, {"type": "Feature", "geometry": {"type": "Point", "coordinates": [-1.5371335, 53.993593]}, "properties": {"Postcode": "HG1 5LQ", "ULEZ": "Victoria Multi-Storey Car Park, Harrogate"}}, {"type": "Feature", "geometry": {"type": "Point", "coordinates": [-0.4715943, 52.1260456]}, "properties": {"Postcode": "MK42 9JP", "ULEZ": "Victoria Road"}}, {"type": "Feature", "geometry": {"type": "Point", "coordinates": [-0.3768873, 50.815525]}, "properties": {"Postcode": "BN11 1UY", "ULEZ": "Victoria Road, Broadwater"}}, {"type": "Feature", "geometry": {"type": "Point", "coordinates": [-0.571756, 51.428993]}, "properties": {"Postcode": "TW20 0QY", "ULEZ": "Victoria Street, Englefield Green"}}, {"type": "Feature", "geometry": {"type": "Point", "coordinates": [-1.499997, 52.4344651]}, "properties": {"Postcode": "CV6 5JF", "ULEZ": "Victory Road"}}, {"type": "Feature", "geometry": {"type": "Point", "coordinates": [-2.829033, 56.035299]}, "properties": {"Postcode": "EH31 2HA", "ULEZ": "Village Hall Car Park"}}, {"type": "Feature", "geometry": {"type": "Point", "coordinates": [-2.86928, 55.854753]}, "properties": {"Postcode": "EH36 5PP", "ULEZ": "Village Hall Car Park, East Lothian"}}, {"type": "Feature", "geometry": {"type": "Point", "coordinates": [-0.7807803, 54.2439768]}, "properties": {"Postcode": "YO18 8DL", "ULEZ": "Vivis Lane Car Park"}}, {"type": "Feature", "geometry": {"type": "Point", "coordinates": [-1.4527631, 52.3933789]}, "properties": {"Postcode": "CV3 2LJ", "ULEZ": "Walton Road, Binley"}}, {"type": "Feature", "geometry": {"type": "Point", "coordinates": [-2.512822, 55.995639]}, "properties": {"Postcode": "EH42 1LU", "ULEZ": "Warrender Crescent"}}, {"type": "Feature", "geometry": {"type": "Point", "coordinates": [1.3155168, 51.1228103]}, "properties": {"Postcode": "CT17 9BP", "ULEZ": "Waterloo Crescent"}}, {"type": "Feature", "geometry": {"type": "Point", "coordinates": [-1.5243568, 52.4095974]}, "properties": {"Postcode": "CV1 3AP", "ULEZ": "Waveley Road 1"}}, {"type": "Feature", "geometry": {"type": "Point", "coordinates": [-1.5238342, 52.4095439]}, "properties": {"Postcode": "CV1 3AG", "ULEZ": "Waveley Road 2"}}, {"type": "Feature", "geometry": {"type": "Point", "coordinates": [-1.5253844, 52.4100282]}, "properties": {"Postcode": "CV1 3AD", "ULEZ": "Waveley Road 3"}}, {"type": "Feature", "geometry": {"type": "Point", "coordinates": [-3.0443823, 55.9314132]}, "properties": {"Postcode": "EH21 7TU", "ULEZ": "Wedderburn Court, East Lothian"}}, {"type": "Feature", "geometry": {"type": "Point", "coordinates": [-0.701587, 52.16094]}, "properties": {"Postcode": "MK46 4BJ", "ULEZ": "Wellingborough Road, Olney"}}, {"type": "Feature", "geometry": {"type": "Point", "coordinates": [-2.736677, 53.342051]}, "properties": {"Postcode": "WA7 1LB", "ULEZ": "Wellington Street"}}, {"type": "Feature", "geometry": {"type": "Point", "coordinates": [-0.7980283, 54.1374992]}, "properties": {"Postcode": "YO17 7BQ", "ULEZ": "Wentworth Street Car Park"}}, {"type": "Feature", "geometry": {"type": "Point", "coordinates": [-3.709681, 51.4765808]}, "properties": {"Postcode": "CF36 3YW", "ULEZ": "West Drive, Porthcawl"}}, {"type": "Feature", "geometry": {"type": "Point", "coordinates": [-1.8012701, 51.54723]}, "properties": {"Postcode": "SN1 7NU", "ULEZ": "West Leaze, Wichelstowe"}}, {"type": "Feature", "geometry": {"type": "Point", "coordinates": [-0.3888821, 50.8076296]}, "properties": {"Postcode": "BN11 3QX", "ULEZ": "West Parade"}}, {"type": "Feature", "geometry": {"type": "Point", "coordinates": [-4.1687699, 50.4127507]}, "properties": {"Postcode": "PL1 5PS", "ULEZ": "West Park Car Park"}}, {"type": "Feature", "geometry": {"type": "Point", "coordinates": [-1.5396786, 53.9892884]}, "properties": {"Postcode": "HG1 1HS", "ULEZ": "West Park Car Park, Harrogate"}}, {"type": "Feature", "geometry": {"type": "Point", "coordinates": [-1.0593921, 52.4173634]}, "properties": {"Postcode": "NN6 6HU", "ULEZ": "West Street"}}, {"type": "Feature", "geometry": {"type": "Point", "coordinates": [1.4007302, 51.2259711]}, "properties": {"Postcode": "CT14 6EA", "ULEZ": "West Street Car Park"}}, {"type": "Feature", "geometry": {"type": "Point", "coordinates": [0.9378719, 50.9850554]}, "properties": {"Postcode": "TN28 8BU", "ULEZ": "West Street Car Park"}}, {"type": "Feature", "geometry": {"type": "Point", "coordinates": [-2.9075329, 55.9402823]}, "properties": {"Postcode": "EH33 1PL", "ULEZ": "Westbank Road, East Lothian"}}, {"type": "Feature", "geometry": {"type": "Point", "coordinates": [-1.7102251, 55.4119299]}, "properties": {"Postcode": "NE66 1LF", "ULEZ": "Westgate House, Clayport Street"}}, {"type": "Feature", "geometry": {"type": "Point", "coordinates": [-1.7919799, 52.475949]}, "properties": {"Postcode": "B26 2DQ", "ULEZ": "Westhall Court"}}, {"type": "Feature", "geometry": {"type": "Point", "coordinates": [-0.7491832, 52.0012079]}, "properties": {"Postcode": "MK3 6LG", "ULEZ": "Westminster Drive, Bletchley"}}, {"type": "Feature", "geometry": {"type": "Point", "coordinates": [-1.4478553, 52.414387]}, "properties": {"Postcode": "CV2 5BU", "ULEZ": "Westmorland Road"}}, {"type": "Feature", "geometry": {"type": "Point", "coordinates": [-1.5805393, 52.4047213]}, "properties": {"Postcode": "CV4 9SH", "ULEZ": "Wheate Croft"}}, {"type": "Feature", "geometry": {"type": "Point", "coordinates": [-2.6012699, 53.3875828]}, "properties": {"Postcode": "WA1 1NR", "ULEZ": "White Street"}}, {"type": "Feature", "geometry": {"type": "Point", "coordinates": [-3.0169214, 52.8735664]}, "properties": {"Postcode": "SY11 4AH", "ULEZ": "Whittington Depot"}}, {"type": "Feature", "geometry": {"type": "Point", "coordinates": [1.1402645, 51.0734315]}, "properties": {"Postcode": "CT20 3ED", "ULEZ": "Wilberforce Road Car Park"}}, {"type": "Feature", "geometry": {"type": "Point", "coordinates": [-1.4428931, 52.3962654]}, "properties": {"Postcode": "CV3 2JZ", "ULEZ": "Willenhall Lane 1"}}, {"type": "Feature", "geometry": {"type": "Point", "coordinates": [-1.444392, 52.3940032]}, "properties": {"Postcode": "CV3 2LG", "ULEZ": "Willenhall Lane 2"}}, {"type": "Feature", "geometry": {"type": "Point", "coordinates": [-1.4447877, 52.3941976]}, "properties": {"Postcode": "CV3 2LG", "ULEZ": "Willenhall Lane 3"}}, {"type": "Feature", "geometry": {"type": "Point", "coordinates": [-1.44491, 52.3937943]}, "properties": {"Postcode": "CV3 2LH", "ULEZ": "Willenhall Lane 4"}}, {"type": "Feature", "geometry": {"type": "Point", "coordinates": [-1.4985949, 52.3928341]}, "properties": {"Postcode": "CV3 5LQ", "ULEZ": "William Bristow Road 1"}}, {"type": "Feature", "geometry": {"type": "Point", "coordinates": [-1.4981223, 52.3922881]}, "properties": {"Postcode": "CV3 5LQ", "ULEZ": "William Bristow Road 2"}}, {"type": "Feature", "geometry": {"type": "Point", "coordinates": [-1.4977629, 52.3891936]}, "properties": {"Postcode": "CV3 5LP", "ULEZ": "William Bristow Road 3"}}, {"type": "Feature", "geometry": {"type": "Point", "coordinates": [-0.5780941, 51.2411391]}, "properties": {"Postcode": "GU1 4QZ", "ULEZ": "William Road"}}, {"type": "Feature", "geometry": {"type": "Point", "coordinates": [-3.1815959, 51.739034]}, "properties": {"Postcode": "NP23 7TH", "ULEZ": "William Street, Cwm, Blaenau Gwent"}}, {"type": "Feature", "geometry": {"type": "Point", "coordinates": [-3.040683, 53.410765]}, "properties": {"Postcode": "CH44 4EZ", "ULEZ": "Willow Bank Court"}}, {"type": "Feature", "geometry": {"type": "Point", "coordinates": [-4.1608649, 50.3750294]}, "properties": {"Postcode": "PL1 5PS", "ULEZ": "Wilton Road"}}, {"type": "Feature", "geometry": {"type": "Point", "coordinates": [-1.4469065, 52.3993412]}, "properties": {"Postcode": "CV3 2FE", "ULEZ": "Winchat Close"}}, {"type": "Feature", "geometry": {"type": "Point", "coordinates": [-1.4840982, 52.444506]}, "properties": {"Postcode": "CV6 7BP", "ULEZ": "Windmill Road"}}, {"type": "Feature", "geometry": {"type": "Point", "coordinates": [-1.5224283, 52.408058]}, "properties": {"Postcode": "CV1 3BQ", "ULEZ": "Windsor Street"}}, {"type": "Feature", "geometry": {"type": "Point", "coordinates": [-1.5219053, 52.4090629]}, "properties": {"Postcode": "CV1 3LJ", "ULEZ": "Windsor Street 2"}}, {"type": "Feature", "geometry": {"type": "Point", "coordinates": [-1.165928, 52.355426]}, "properties": {"Postcode": "NN6 7GX", "ULEZ": "Winvic Construction DC9 Drift"}}, {"type": "Feature", "geometry": {"type": "Point", "coordinates": [-0.4745719, 51.350233]}, "properties": {"Postcode": "KT13 0YU", "ULEZ": "Winvic construction site, 23, Vickers Drive North"}}, {"type": "Feature", "geometry": {"type": "Point", "coordinates": [-0.6068762, 51.1919347]}, "properties": {"Postcode": "GU7 3DX", "ULEZ": "Wolseley Road"}}, {"type": "Feature", "geometry": {"type": "Point", "coordinates": [-1.5732932, 52.4052668]}, "properties": {"Postcode": "CV4 9EG", "ULEZ": "Woodcraft Close 1"}}, {"type": "Feature", "geometry": {"type": "Point", "coordinates": [-1.5735332, 52.4053598]}, "properties": {"Postcode": "CV4 9EG", "ULEZ": "Woodcraft Close 2"}}, {"type": "Feature", "geometry": {"type": "Point", "coordinates": [-1.5739851, 52.405032]}, "properties": {"Postcode": "CV4 9EG", "ULEZ": "Woodcraft Close 3"}}, {"type": "Feature", "geometry": {"type": "Point", "coordinates": [-0.1756766, 51.4530716]}, "properties": {"Postcode": "SW18 3SD", "ULEZ": "Woodhall House, Fitzhugh Estate, Wandsworth"}}, {"type": "Feature", "geometry": {"type": "Point", "coordinates": [-0.8440909, 52.0575567]}, "properties": {"Postcode": "MK11 1DL", "ULEZ": "Woodside, Stony Stratford"}}, {"type": "Feature", "geometry": {"type": "Point", "coordinates": [-1.5030152, 52.3931479]}, "properties": {"Postcode": "CV3 5HQ", "ULEZ": "Woodstock Road"}}, {"type": "Feature", "geometry": {"type": "Point", "coordinates": [-0.3824012, 50.808733]}, "properties": {"Postcode": "BN11 3NH", "ULEZ": "Wordsworth Road"}}, {"type": "Feature", "geometry": {"type": "Point", "coordinates": [-0.0790224, 51.5527976]}, "properties": {"Postcode": "N16 8DD", "ULEZ": "Wordsworth Road, Hackney"}}, {"type": "Feature", "geometry": {"type": "Point", "coordinates": [-0.7024916, 52.1582901]}, "properties": {"Postcode": "MK46 5DX", "ULEZ": "Yardley Road, Olney"}}, {"type": "Feature", "geometry": {"type": "Point", "coordinates": [-1.4657824, 52.3825484]}, "properties": {"Postcode": "CV3 3EN", "ULEZ": "Yarningale Road 1"}}, {"type": "Feature", "geometry": {"type": "Point", "coordinates": [-1.4633454, 52.3819083]}, "properties": {"Postcode": "CV3 3EP", "ULEZ": "Yarningale Road 2"}}, {"type": "Feature", "geometry": {"type": "Point", "coordinates": [-1.4606959, 52.3837009]}, "properties": {"Postcode": "CV3 3ES", "ULEZ": "Yarningale Road 3"}}, {"type": "Feature", "geometry": {"type": "Point", "coordinates": [-3.1777303, 51.6781446]}, "properties": {"Postcode": "NP12 0LR", "ULEZ": "York Place Car Park, Blackwood"}}, {"type": "Feature", "geometry": {"type": "Point", "coordinates": [-2.210566, 53.8337168]}, "properties": {"Postcode": "BB9 9DT", "ULEZ": "Yorkshire Street"}}]}